{
  "version": 0.6,
  "generator": "Overpass API 0.7.62.7 375dc00a",
  "osm3s": {
    "timestamp_osm_base": "2025-07-10T05:05:22Z",
    "timestamp_areas_base": "2025-07-09T01:47:14Z",
    "copyright": "The data included in this document is from www.openstreetmap.org. The data is made available under ODbL."
  },
  "elements": [

{
  "type": "node",
  "id": 3002112311,
  "lat": 50.5888080,
  "lon": 4.3080281,
  "tags": {
    "access": "customers",
    "addr:city": "Nivelles",
    "addr:country": "BE",
    "addr:housenumber": "22",
    "addr:postcode": "1400",
    "addr:street": "Chaussée de Mons",
    "amenity": "charging_station",
    "bicycle": "no",
    "brand": "Tesla",
    "brand:wikidata": "Q478214",
    "capacity": "12",
    "fee": "yes",
    "motorcar": "yes",
    "name": "Nivelles-Sud Supercharger",
    "opening_hours": "24/7",
    "operator": "Tesla",
    "operator:wikidata": "Q478214",
    "parking:fee": "no",
    "scooter": "no",
    "short_name": "Tesla",
    "socket:tesla_supercharger": "12",
    "socket:tesla_supercharger:output": "150 kW",
    "socket:tesla_supercharger_ccs": "12",
    "socket:tesla_supercharger_ccs:output": "150 kW",
    "source": "Tesla",
    "truck": "no",
    "website": "https://www.tesla.com/findus/location/supercharger/nivellessud"
  }
},
{
  "type": "node",
  "id": 3269560893,
  "lat": 51.1369444,
  "lon": 4.3771846,
  "tags": {
    "access": "no",
    "addr:housenumber": "8",
    "addr:street": "Boomsesteenweg",
    "amenity": "charging_station",
    "bicycle": "no",
    "brand": "Tesla Supercharger",
    "brand:wikidata": "Q17089620",
    "capacity": "6",
    "fee": "yes",
    "fixme": "is it still a public supercharger ?",
    "motorcar": "yes",
    "name": "Tesla Supercharger Antwerp-Aartselaar",
    "opening_hours": "24/7",
    "operator": "Tesla",
    "parking:fee": "no",
    "phone": "+32 3 808 17 82",
    "phone:BE": "0800 29 027",
    "scooter": "no",
    "socket:tesla_supercharger": "6",
    "socket:tesla_supercharger:output": "150 kW",
    "socket:tesla_supercharger_ccs": "6",
    "socket:tesla_supercharger_ccs:output": "150 kW",
    "truck": "no",
    "website": "https://www.tesla.com/nl_NL/findus/location/supercharger/antwerp"
  }
},
{
  "type": "node",
  "id": 3808723774,
  "lat": 51.0745583,
  "lon": 3.6810110,
  "tags": {
    "access": "customers",
    "amenity": "charging_station",
    "authentication:none": "no",
    "bus": "no",
    "capacity": "2",
    "fee": "yes",
    "hgv": "no",
    "name": "Lidl Mariakerke",
    "operator": "Lidl",
    "operator:wikidata": "Q151954",
    "operator:wikipedia": "en:Lidl",
    "parking:fee": "no",
    "socket:chademo": "1",
    "socket:chademo:output": "50 kW",
    "socket:type2": "1",
    "socket:type2:output": "22 kW",
    "socket:type2_combo": "1",
    "socket:type2_combo:output": "50 kW"
  }
},
{
  "type": "node",
  "id": 4178908879,
  "lat": 50.8777363,
  "lon": 4.4119197,
  "tags": {
    "access": "yes",
    "amenity": "charging_station",
    "bicycle": "no",
    "brand": "Luminus",
    "brand:wikidata": "Q1837429",
    "capacity": "3",
    "charge": "0.35 EUR/kWh + 0.2 EUR/minute",
    "fee": "yes",
    "level": "-1",
    "manufacturer": "Tritum",
    "maxstay": "30 minutes",
    "motorcar": "yes",
    "operator": "Luminus",
    "ref": "64337",
    "socket:chademo": "1",
    "socket:chademo:output": "50 kW",
    "socket:type2": "1",
    "socket:type2:output": "43 kW",
    "socket:type2_combo": "1",
    "socket:type2_combo:output": "50 kW",
    "website": "https://www.luminus.be/charge"
  }
},
{
  "type": "node",
  "id": 4696334505,
  "lat": 50.8613760,
  "lon": 4.3541716,
  "tags": {
    "amenity": "charging_station",
    "capacity": "3",
    "name": "Engie",
    "operator": "Allego",
    "operator:wikidata": "Q75560554",
    "owner": "Engie",
    "socket:chademo": "1",
    "socket:chademo:output": "50 kW",
    "socket:type2": "1",
    "socket:type2:output": "43 kW",
    "socket:type2_combo": "1",
    "socket:type2_combo:output": "50 kW"
  }
},
{
  "type": "node",
  "id": 5493315878,
  "lat": 49.6480915,
  "lon": 5.8189535,
  "tags": {
    "access": "yes",
    "addr:city": "Arlon",
    "addr:country": "BE",
    "addr:postcode": "6706",
    "addr:street": "Parc d'activitee Economique Weyler II",
    "amenity": "charging_station",
    "bicycle": "no",
    "brand": "Tesla",
    "brand:wikidata": "Q478214",
    "capacity": "30",
    "fee": "yes",
    "motorcar": "yes",
    "name": "Arlon Supercharger",
    "opening_hours": "24/7",
    "operator": "Tesla",
    "operator:wikidata": "Q478214",
    "parking:fee": "no",
    "scooter": "no",
    "short_name": "Tesla",
    "socket:tesla_supercharger": "14",
    "socket:tesla_supercharger:output": "150 kW",
    "socket:tesla_supercharger_ccs": "16",
    "socket:tesla_supercharger_ccs:output": "250 kW",
    "source": "Tesla",
    "truck": "no",
    "website": "https://www.tesla.com/findus/location/supercharger/arlonsupercharger"
  }
},
{
  "type": "node",
  "id": 5579153321,
  "lat": 50.9932995,
  "lon": 5.2421887,
  "tags": {
    "access": "yes",
    "addr:city": "Heusden-Zolder",
    "addr:country": "BE",
    "addr:housenumber": "15",
    "addr:postcode": "3550",
    "addr:street": "Industrieweg",
    "amenity": "charging_station",
    "bicycle": "no",
    "brand": "Tesla",
    "brand:wikidata": "Q478214",
    "capacity": "14",
    "fee": "yes",
    "motorcar": "yes",
    "name": "Heusden-Zolder Supercharger",
    "opening_hours": "24/7",
    "operator": "Tesla",
    "operator:wikidata": "Q478214",
    "parking:fee": "no",
    "phone": "+32 3 808 17 82",
    "phone:BE": "0800 29 027",
    "scooter": "no",
    "short_name": "Tesla",
    "socket:tesla_supercharger": "4",
    "socket:tesla_supercharger:output": "250 kW",
    "socket:tesla_supercharger_ccs": "10",
    "socket:tesla_supercharger_ccs:output": "150 kW",
    "source": "Tesla",
    "truck": "no",
    "website": "https://www.tesla.com/nl_be/findus/location/supercharger/heusdenzoldersupercharger"
  }
},
{
  "type": "node",
  "id": 5686004404,
  "lat": 50.8332728,
  "lon": 4.3785682,
  "tags": {
    "access": "customers",
    "amenity": "charging_station",
    "authentication:none": "no",
    "bus": "no",
    "capacity": "2",
    "fee": "yes",
    "hgv": "no",
    "name": "Lidl Elsene-Graystraat",
    "operator": "Lidl",
    "operator:wikidata": "Q151954",
    "operator:wikipedia": "en:Lidl",
    "parking:fee": "no",
    "socket:chademo": "1",
    "socket:chademo:output": "50 kW",
    "socket:type2": "1",
    "socket:type2:output": "22 kW",
    "socket:type2_combo": "1",
    "socket:type2_combo:output": "50 kW"
  }
},
{
  "type": "node",
  "id": 5815055381,
  "lat": 51.0950622,
  "lon": 4.0118582,
  "tags": {
    "access": "yes",
    "addr:city": "Lokeren",
    "addr:country": "BE",
    "addr:housenumber": "100",
    "addr:postcode": "9160",
    "addr:street": "Zelebaan",
    "amenity": "charging_station",
    "bicycle": "no",
    "brand": "Tesla Supercharger",
    "brand:wikidata": "Q17089620",
    "capacity": "14",
    "fee": "yes",
    "motorcar": "yes",
    "name": "Lokeren Supercharger",
    "opening_hours": "24/7",
    "operator": "Tesla",
    "operator:wikidata": "Q478214",
    "parking:fee": "no",
    "scooter": "no",
    "short_name": "Tesla",
    "socket:tesla_supercharger": "10",
    "socket:tesla_supercharger:output": "150 kW",
    "socket:tesla_supercharger_ccs": "4",
    "socket:tesla_supercharger_ccs:output": "250 kW",
    "source": "Tesla",
    "truck": "no",
    "website": "https://www.tesla.com/findus/location/supercharger/lokerensupercharger"
  }
},
{
  "type": "node",
  "id": 5830789334,
  "lat": 50.7112513,
  "lon": 4.6047591,
  "tags": {
    "amenity": "charging_station",
    "authentication:app": "yes",
    "authentication:membership_card": "yes",
    "authentication:nfc": "yes",
    "bicycle": "no",
    "capacity": "2",
    "fee": "yes",
    "motorcar": "yes",
    "name": "Carrefour - Quick Allego fastcharger Wavre",
    "opening_hours": "24/7",
    "operator": "Allego",
    "scooter": "no",
    "socket:chademo": "1",
    "socket:chademo:output": "50 kW",
    "socket:type2": "1",
    "socket:type2:output": "43 kW",
    "socket:type2_combo": "1",
    "socket:type2_combo:output": "50 kW"
  }
},
{
  "type": "node",
  "id": 6132708730,
  "lat": 50.8877219,
  "lon": 4.4530720,
  "tags": {
    "access": "customers",
    "amenity": "charging_station",
    "bicycle": "no",
    "brand": "Tesla Supercharger",
    "brand:wikidata": "Q17089620",
    "capacity": "8",
    "fee": "yes",
    "motorcar": "yes",
    "name": "Machelen Supercharger",
    "opening_hours": "24/7",
    "operator": "Tesla",
    "operator:wikidata": "Q478214",
    "parking:fee": "no",
    "phone": "+32 3 808 17 82",
    "phone:BE": "0800 29 027",
    "scooter": "no",
    "short_name": "Tesla",
    "socket:tesla_supercharger": "8",
    "socket:tesla_supercharger:output": "150 kW",
    "socket:tesla_supercharger_ccs": "8",
    "socket:tesla_supercharger_ccs:output": "150 kW",
    "source": "Tesla",
    "truck": "no",
    "website": "https://www.tesla.com/findus/location/supercharger/machelensupercharger"
  }
},
{
  "type": "node",
  "id": 6132760107,
  "lat": 50.5921985,
  "lon": 5.8485722,
  "tags": {
    "access": "yes",
    "addr:city": "Verviers",
    "addr:country": "BE",
    "addr:housenumber": "4",
    "addr:postcode": "4800",
    "addr:street": "Rue de la Station",
    "amenity": "charging_station",
    "bicycle": "no",
    "brand": "Tesla",
    "brand:wikidata": "Q478214",
    "capacity": "12",
    "fee": "yes",
    "motorcar": "yes",
    "name": "Verviers Supercharger",
    "opening_hours": "24/7",
    "operator": "Tesla",
    "operator:wikidata": "Q478214",
    "parking:fee": "no",
    "scooter": "no",
    "short_name": "Tesla",
    "socket:tesla_supercharger_ccs": "12",
    "socket:tesla_supercharger_ccs:output": "250 kW",
    "source": "Tesla",
    "truck": "no",
    "website": "https://www.tesla.com/findus/location/supercharger/vervierssupercharger"
  }
},
{
  "type": "node",
  "id": 6164283628,
  "lat": 50.7182714,
  "lon": 6.1197375,
  "tags": {
    "amenity": "charging_station",
    "authentication:nfc": "yes",
    "capacity": "3",
    "motorcar": "yes",
    "name": "Total E40 Raeren Lichtenbusch Nord",
    "operator": "Allego",
    "operator:wikidata": "Q75560554",
    "ref": "BEALLEG000032",
    "socket:chademo": "1",
    "socket:chademo:output": "50 kW",
    "socket:type2": "1",
    "socket:type2:output": "43 kW",
    "socket:type2_combo": "1",
    "socket:type2_combo:output": "50 kW"
  }
},
{
  "type": "node",
  "id": 6239577265,
  "lat": 51.0936013,
  "lon": 5.7772481,
  "tags": {
    "amenity": "charging_station",
    "capacity": "1",
    "name": "Lidl Laadpaal",
    "socket:chademo": "1",
    "socket:chademo:output": "50 kW",
    "socket:type2": "1",
    "socket:type2:output": "50 kW",
    "socket:type2_combo": "1",
    "socket:type2_combo:output": "50 kW"
  }
},
{
  "type": "node",
  "id": 6242290201,
  "lat": 50.8715537,
  "lon": 4.3553033,
  "tags": {
    "amenity": "charging_station",
    "capacity": "1",
    "noname": "yes",
    "operator": "Allego",
    "operator:wikidata": "Q75560554",
    "owner": "Allego",
    "socket:chademo": "1",
    "socket:chademo:output": "50 kW",
    "socket:type2_combo": "1",
    "socket:type2_combo:output": "50 kW"
  }
},
{
  "type": "node",
  "id": 6342189137,
  "lat": 50.6901150,
  "lon": 4.6184813,
  "tags": {
    "amenity": "charging_station",
    "authentication:membership_card": "yes",
    "authentication:nfc": "yes",
    "capacity": "2",
    "description": "Possibility to use AC + DC (Chademo or CCS) charging at the same time.",
    "fee": "yes",
    "maxstay": "30 minutes",
    "motorcar": "yes",
    "name": "Decathlon Wavre Luminus Fast Charger",
    "opening_hours": "24/7",
    "operator": "Luminus",
    "panoramax": "894fe1b3-e0b1-42b2-8f9f-e8d8f4ec2c63",
    "socket:chademo": "1",
    "socket:chademo:output": "50 kW",
    "socket:type2": "1",
    "socket:type2:output": "43 kW",
    "socket:type2_combo": "1",
    "socket:type2_combo:output": "50 kW"
  }
},
{
  "type": "node",
  "id": 6380824388,
  "lat": 50.7080757,
  "lon": 4.5982543,
  "tags": {
    "access": "yes",
    "addr:city": "Wavre",
    "addr:country": "BE",
    "addr:housenumber": "45",
    "addr:postcode": "1301",
    "addr:street": "Rue de la Wastinne",
    "amenity": "charging_station",
    "bicycle": "no",
    "brand": "Tesla Supercharger",
    "brand:wikidata": "Q17089620",
    "capacity": "24",
    "fee": "yes",
    "motorcar": "yes",
    "name": "Wavre Supercharger",
    "opening_hours": "24/7",
    "operator": "Tesla",
    "operator:wikidata": "Q478214",
    "parking:fee": "no",
    "scooter": "no",
    "short_name": "Tesla",
    "socket:tesla_supercharger_ccs": "24",
    "socket:tesla_supercharger_ccs:output": "250 kW",
    "source": "Tesla",
    "truck": "no",
    "website": "https://www.tesla.com/findus/location/supercharger/wavrebesupercharger"
  }
},
{
  "type": "node",
  "id": 6423620279,
  "lat": 51.1510931,
  "lon": 4.4325563,
  "tags": {
    "access": "yes",
    "addr:city": "Edegem",
    "addr:country": "BE",
    "addr:housenumber": "1",
    "addr:postcode": "2650",
    "addr:street": "Kattenbroek",
    "amenity": "charging_station",
    "bicycle": "no",
    "brand": "Tesla Supercharger",
    "brand:wikidata": "Q17089620",
    "capacity": "18",
    "changing_table": "no",
    "entrance:kerb:height": "0",
    "entrance:ramp": "yes",
    "entrance:width": "0.8",
    "fee": "yes",
    "motorcar": "yes",
    "name": "Edegem Supercharger",
    "opening_hours": "24/7",
    "operator": "Tesla",
    "operator:wikidata": "Q478214",
    "parking:fee": "no",
    "scooter": "no",
    "short_name": "Tesla",
    "socket:tesla_supercharger": "18",
    "socket:tesla_supercharger:output": "150 kW",
    "socket:tesla_supercharger_ccs": "18",
    "socket:tesla_supercharger_ccs:output": "150 kW",
    "source": "Tesla",
    "toilets:wheelchair": "yes",
    "truck": "no",
    "website": "https://www.tesla.com/findus/location/supercharger/edegemsupercharger",
    "wheelchair:turning_circle": "no"
  }
},
{
  "type": "node",
  "id": 6425495015,
  "lat": 50.9214427,
  "lon": 4.0326604,
  "tags": {
    "access": "customers",
    "addr:city": "Aalst",
    "addr:country": "BE",
    "addr:housenumber": "20",
    "addr:postcode": "9300",
    "addr:street": "Villalaan",
    "amenity": "charging_station",
    "bicycle": "no",
    "brand": "Tesla Supercharger",
    "brand:wikidata": "Q17089620",
    "capacity": "12",
    "fee": "yes",
    "motorcar": "yes",
    "name": "Aalst Supercharger",
    "opening_hours": "24/7",
    "operator": "Tesla",
    "operator:wikidata": "Q478214",
    "parking:fee": "no",
    "scooter": "no",
    "short_name": "Tesla",
    "socket:tesla_supercharger": "8",
    "socket:tesla_supercharger:output": "150 kW",
    "socket:tesla_supercharger_ccs": "4",
    "socket:tesla_supercharger_ccs:output": "250 kW",
    "truck": "no",
    "website": "https://www.tesla.com/findus/location/supercharger/aalstsupercharger"
  }
},
{
  "type": "node",
  "id": 6425495017,
  "lat": 51.2681134,
  "lon": 4.4029194,
  "tags": {
    "access": "yes",
    "addr:city": "Antwerpen",
    "addr:country": "BE",
    "addr:housenumber": "6",
    "addr:postcode": "2030",
    "addr:street": "Luithagen-Haven",
    "amenity": "charging_station",
    "bicycle": "no",
    "brand": "Tesla Supercharger",
    "brand:wikidata": "Q17089620",
    "capacity": "14",
    "fee": "yes",
    "motorcar": "yes",
    "name": "Antwerp Supercharger",
    "opening_hours": "24/7",
    "operator": "Tesla",
    "operator:wikidata": "Q478214",
    "parking:fee": "no",
    "scooter": "no",
    "short_name": "Tesla",
    "socket:tesla_supercharger": "10",
    "socket:tesla_supercharger:output": "150 kW",
    "socket:tesla_supercharger_ccs": "4",
    "socket:tesla_supercharger_ccs:output": "250 kW",
    "source": "Tesla",
    "truck": "no",
    "website": "https://www.tesla.com/findus/location/supercharger/antwerpsupercharger"
  }
},
{
  "type": "node",
  "id": 6425495018,
  "lat": 50.8055090,
  "lon": 3.2745150,
  "tags": {
    "access": "yes",
    "addr:city": "Kortrijk",
    "addr:country": "BE",
    "addr:housenumber": "100",
    "addr:postcode": "8500",
    "addr:street": "President Kennedylaan",
    "amenity": "charging_station",
    "bicycle": "no",
    "brand": "Tesla Supercharger",
    "brand:wikidata": "Q17089620",
    "capacity": "12",
    "fee": "yes",
    "motorcar": "yes",
    "name": "Kortrijk Supercharger",
    "opening_hours": "24/7",
    "operator": "Tesla",
    "operator:wikidata": "Q478214",
    "parking:fee": "no",
    "scooter": "no",
    "short_name": "Tesla",
    "socket:tesla_supercharger": "12",
    "socket:tesla_supercharger:output": "150 kW",
    "socket:tesla_supercharger_ccs": "12",
    "socket:tesla_supercharger_ccs:output": "150 kW",
    "source": "Tesla",
    "truck": "no",
    "website": "https://www.tesla.com/findus/location/supercharger/kortrijkbesupercharger"
  }
},
{
  "type": "node",
  "id": 6539873967,
  "lat": 51.1698512,
  "lon": 4.9883465,
  "tags": {
    "access": "customers",
    "amenity": "charging_station",
    "authentication:none": "no",
    "bicycle": "no",
    "bus": "no",
    "capacity": "2",
    "fee": "yes",
    "hgv": "no",
    "motorcar": "yes",
    "name": "Lidl Geel",
    "operator": "Lidl",
    "operator:wikidata": "Q151954",
    "operator:wikipedia": "en:Lidl",
    "parking:fee": "no",
    "scooter": "no",
    "socket:chademo": "2",
    "socket:chademo:output": "50 kW",
    "socket:type2": "2",
    "socket:type2:output": "22 kW",
    "socket:type2_combo": "2",
    "socket:type2_combo:output": "50 kW"
  }
},
{
  "type": "node",
  "id": 7105688160,
  "lat": 50.5993796,
  "lon": 4.7905756,
  "tags": {
    "amenity": "charging_station",
    "bicycle": "no",
    "capacity": "2",
    "description": "Possibility to use AC + DC (Chademo or CCS) charging at the same time.",
    "fee": "yes",
    "motorcar": "yes",
    "opening_hours": "24/7",
    "operator": "Luminus",
    "operator:wikidata": "Q1837429",
    "socket:chademo": "1",
    "socket:chademo:output": "50 kW",
    "socket:type2": "1",
    "socket:type2:output": "43 kW",
    "socket:type2_combo": "1",
    "socket:type2_combo:output": "50 kW"
  }
},
{
  "type": "node",
  "id": 7105688161,
  "lat": 50.5994206,
  "lon": 4.7905838,
  "tags": {
    "amenity": "charging_station",
    "bicycle": "no",
    "capacity": "2",
    "description": "Possibility to use AC + DC (Chademo or CCS) charging at the same time.",
    "fee": "yes",
    "motorcar": "yes",
    "opening_hours": "24/7",
    "operator": "Luminus",
    "operator:wikidata": "Q1837429",
    "socket:chademo": "1",
    "socket:chademo:output": "50 kW",
    "socket:type2": "1",
    "socket:type2:output": "43 kW",
    "socket:type2_combo": "1",
    "socket:type2_combo:output": "50 kW"
  }
},
{
  "type": "node",
  "id": 7216299723,
  "lat": 50.4838640,
  "lon": 5.7003340,
  "tags": {
    "access": "yes",
    "addr:city": "Remouchamps",
    "addr:country": "BE",
    "addr:housenumber": "1",
    "addr:postcode": "4920",
    "addr:street": "Square Philippe Gilbert",
    "amenity": "charging_station",
    "bicycle": "no",
    "brand": "Tesla Supercharger",
    "brand:wikidata": "Q17089620",
    "capacity": "10",
    "fee": "yes",
    "motorcar": "yes",
    "name": "Remouchamps Supercharger",
    "opening_hours": "24/7",
    "operator": "Tesla",
    "operator:wikidata": "Q478214",
    "parking:fee": "no",
    "scooter": "no",
    "short_name": "Tesla",
    "socket:tesla_supercharger": "10",
    "socket:tesla_supercharger:output": "150 kW",
    "socket:tesla_supercharger_ccs": "10",
    "socket:tesla_supercharger_ccs:output": "150 kW",
    "source": "Tesla",
    "truck": "no",
    "website": "https://www.tesla.com/findus/location/supercharger/remouchampssupercharger"
  }
},
{
  "type": "node",
  "id": 7257911078,
  "lat": 50.1442961,
  "lon": 5.0789022,
  "tags": {
    "amenity": "charging_station",
    "authentication:app": "yes",
    "authentication:membership_card": "yes",
    "authentication:nfc": "yes",
    "bicycle": "no",
    "capacity": "1",
    "fee": "yes",
    "motorcar": "yes",
    "name": "Houyet E411 Wanlin direction Brussels - Allego fastcharger",
    "opening_hours": "24/7",
    "operator": "Allego",
    "operator:wikidata": "Q75560554",
    "scooter": "no",
    "socket:chademo": "1",
    "socket:chademo:output": "50 kW",
    "socket:type2": "1",
    "socket:type2:output": "43 kW",
    "socket:type2_combo": "1",
    "socket:type2_combo:output": "50 kW"
  }
},
{
  "type": "node",
  "id": 7257911083,
  "lat": 50.1440910,
  "lon": 5.0782271,
  "tags": {
    "amenity": "charging_station",
    "authentication:app": "yes",
    "authentication:membership_card": "yes",
    "authentication:nfc": "yes",
    "bicycle": "no",
    "capacity": "1",
    "fee": "yes",
    "motorcar": "yes",
    "name": "Houyet E411 Wanlin direction Luxemburg - Allego fastcharger",
    "opening_hours": "24/7",
    "operator": "Allego",
    "operator:wikidata": "Q75560554",
    "scooter": "no",
    "socket:chademo": "1",
    "socket:chademo:output": "50 kW",
    "socket:type2": "1",
    "socket:type2:output": "43 kW",
    "socket:type2_combo": "1",
    "socket:type2_combo:output": "50 kW"
  }
},
{
  "type": "node",
  "id": 7291387879,
  "lat": 50.6147951,
  "lon": 4.3001280,
  "tags": {
    "amenity": "charging_station",
    "authentication:app": "yes",
    "authentication:membership_card": "yes",
    "authentication:nfc": "yes",
    "capacity": "1",
    "fee": "yes",
    "maxstay": "30 minutes",
    "motorcar": "yes",
    "name": "Nivelles E19 Paris Brussels",
    "opening_hours": "24/7",
    "operator": "Allego",
    "panoramax": "23efa3ba-2698-4a18-af3d-d6e57392902b",
    "ref": "BEALLEGO000044",
    "socket:chademo": "1",
    "socket:chademo:output": "50 kW",
    "socket:type2": "1",
    "socket:type2:output": "43 kW",
    "socket:type2_combo": "1",
    "socket:type2_combo:output": "50 kW"
  }
},
{
  "type": "node",
  "id": 7291403488,
  "lat": 50.6150846,
  "lon": 4.2992700,
  "tags": {
    "access": "yes",
    "amenity": "charging_station",
    "authentication:app": "yes",
    "authentication:membership_card": "yes",
    "authentication:nfc": "yes",
    "capacity": "1",
    "fee": "yes",
    "maxstay": "30 minutes",
    "motorcar": "yes",
    "name": "Nivelles E19 Brussels Paris",
    "opening_hours": "24/7",
    "operator": "Allego",
    "panoramax": "83a5f18c-052b-4b53-b242-fcbd361a8da0",
    "ref": "BEALLEGO000045",
    "socket:chademo": "1",
    "socket:chademo:output": "50 kW",
    "socket:type2": "1",
    "socket:type2:output": "43 kW",
    "socket:type2_combo": "1",
    "socket:type2_combo:output": "50 kW"
  }
},
{
  "type": "node",
  "id": 7291403494,
  "lat": 50.4956758,
  "lon": 4.7011071,
  "tags": {
    "amenity": "charging_station",
    "authentication:app": "yes",
    "authentication:membership_card": "yes",
    "authentication:nfc": "yes",
    "capacity": "1",
    "fee": "yes",
    "maxstay": "30 minutes",
    "motorcar": "yes",
    "name": "Spy E42 Liege-Mons",
    "opening_hours": "24/7",
    "operator": "Allego",
    "operator:wikidata": "Q75560554",
    "panoramax": "2107e08f-2200-4392-aa9e-6abde8fa4fae",
    "ref": "BEALLEGO000033",
    "socket:chademo": "1",
    "socket:chademo:output": "50 kW",
    "socket:type2": "1",
    "socket:type2:output": "43 kW",
    "socket:type2_combo": "1",
    "socket:type2_combo:output": "50 kW"
  }
},
{
  "type": "node",
  "id": 7291403499,
  "lat": 50.4939812,
  "lon": 4.7019484,
  "tags": {
    "amenity": "charging_station",
    "authentication:app": "yes",
    "authentication:membership_card": "yes",
    "authentication:nfc": "yes",
    "capacity": "1",
    "fee": "yes",
    "maxstay": "30 minutes",
    "motorcar": "yes",
    "name": "Jemeppe-sur-Sambre E42 Mons-Liege",
    "opening_hours": "24/7",
    "operator": "Allego",
    "operator:wikidata": "Q75560554",
    "panoramax": "6dd2faa8-fac8-4915-a479-10ef9ff89a62",
    "ref": "BEALLEGO000034",
    "socket:chademo": "1",
    "socket:chademo:output": "50 kW",
    "socket:type2": "1",
    "socket:type2:output": "43 kW",
    "socket:type2_combo": "1",
    "socket:type2_combo:output": "50 kW"
  }
},
{
  "type": "node",
  "id": 7352381155,
  "lat": 50.4909434,
  "lon": 4.0956041,
  "tags": {
    "access": "yes",
    "amenity": "charging_station",
    "capacity": "4",
    "covered": "no",
    "name": "Luminus Q8 E19 Nord Le Roeulx fastcharger",
    "operator": "Luminus",
    "operator:wikidata": "Q1837429",
    "socket:chademo": "2",
    "socket:chademo:output": "50kW",
    "socket:type2": "2",
    "socket:type2:output": "43kW",
    "socket:type2_combo": "2",
    "socket:type2_combo:output": "50kW"
  }
},
{
  "type": "node",
  "id": 7352452444,
  "lat": 50.4874219,
  "lon": 4.0963359,
  "tags": {
    "access": "yes",
    "amenity": "charging_station",
    "brand": "Tritium",
    "capacity": "4",
    "covered": "no",
    "fee": "yes",
    "man_made": "charge_point",
    "name": "Luminus Q8 Thieu Sud E 19 fastcharger Le Roeulx",
    "opening_hours": "24/7",
    "operator": "Luminus",
    "operator:wikidata": "Q1837429",
    "socket:chademo": "2",
    "socket:chademo:output": "50kW",
    "socket:type2": "2",
    "socket:type2:output": "43kW",
    "socket:type2_combo": "2",
    "socket:type2_combo:output": "50kW"
  }
},
{
  "type": "node",
  "id": 7636255611,
  "lat": 50.4859455,
  "lon": 4.7971637,
  "tags": {
    "access": "yes",
    "addr:city": "Suarlée",
    "addr:country": "BE",
    "addr:housenumber": "2",
    "addr:postcode": "5020",
    "addr:street": "Avenue d'Ecolys",
    "amenity": "charging_station",
    "bicycle": "no",
    "brand": "Tesla",
    "brand:wikidata": "Q478214",
    "capacity": "15",
    "fee": "yes",
    "motorcar": "yes",
    "name": "Namur Supercharger",
    "opening_hours": "24/7",
    "operator": "Tesla",
    "operator:wikidata": "Q478214",
    "parking:fee": "no",
    "scooter": "no",
    "short_name": "Tesla",
    "socket:tesla_supercharger_ccs": "15",
    "socket:tesla_supercharger_ccs:output": "250 kW",
    "truck": "no",
    "website": "https://www.tesla.com/findus/location/supercharger/namursupercharger"
  }
},
{
  "type": "node",
  "id": 7681320016,
  "lat": 50.3062213,
  "lon": 5.7125495,
  "tags": {
    "access": "yes",
    "amenity": "charging_station",
    "bicycle": "no",
    "bus": "no",
    "capacity": "2",
    "hgv": "no",
    "motorcar": "yes",
    "opening_hours": "24/7",
    "operator": "Allego",
    "scooter": "no",
    "socket:chademo": "1",
    "socket:chademo:output": "50 kW",
    "socket:type2_cable": "1",
    "socket:type2_cable:output": "43 kW",
    "socket:type2_combo": "1",
    "socket:type2_combo:output": "50 kW"
  }
},
{
  "type": "node",
  "id": 7756425363,
  "lat": 50.6553541,
  "lon": 5.7109798,
  "tags": {
    "access": "yes",
    "addr:city": "Soumagne",
    "addr:postcode": "4632",
    "addr:street": "Aire de Tignée Nord",
    "amenity": "charging_station",
    "authentication:app": "yes",
    "authentication:membership_card": "yes",
    "brand": "Ionity",
    "brand:wikidata": "Q42717773",
    "capacity": "1",
    "fee": "yes",
    "motorcar": "yes",
    "name": "Tignée",
    "opening_hours": "24/7",
    "operator": "Ionity",
    "payment:credit_cards": "no",
    "socket:type2_combo": "4",
    "socket:type2_combo:output": "350kW"
  }
},
{
  "type": "node",
  "id": 7762267184,
  "lat": 50.4893600,
  "lon": 5.8448432,
  "tags": {
    "access": "customers",
    "addr:city": "Spa",
    "addr:housenumber": "240",
    "addr:postcode": "4900",
    "addr:street": "Avenue Reine Astrid",
    "amenity": "charging_station",
    "authentication:none": "no",
    "bus": "no",
    "capacity": "2",
    "fee": "yes",
    "hgv": "no",
    "motorcar": "yes",
    "name": "Lidl Spa",
    "operator": "Lidl",
    "operator:wikidata": "Q151954",
    "operator:wikipedia": "en:Lidl",
    "parking:fee": "no",
    "socket:chademo": "1",
    "socket:chademo:output": "50 kW",
    "socket:type2": "1",
    "socket:type2:output": "22 kW",
    "socket:type2_combo": "1",
    "socket:type2_combo:output": "50 kW"
  }
},
{
  "type": "node",
  "id": 7775077656,
  "lat": 50.6552965,
  "lon": 5.7109619,
  "tags": {
    "access": "yes",
    "addr:city": "Soumagne",
    "addr:postcode": "4632",
    "addr:street": "Aire de Tignée Nord",
    "amenity": "charging_station",
    "authentication:app": "yes",
    "authentication:membership_card": "yes",
    "brand": "Ionity",
    "brand:wikidata": "Q42717773",
    "capacity": "1",
    "fee": "yes",
    "motorcar": "yes",
    "opening_hours": "24/7",
    "operator": "Ionity",
    "payment:credit_cards": "no",
    "ref:EU:EVSE": "BE*ION*E417953",
    "socket:chademo": "1",
    "socket:chademo:output": "50kW",
    "socket:type2": "1",
    "socket:type2:output": "43kW",
    "socket:type2_combo": "1",
    "socket:type2_combo:output": "50kW"
  }
},
{
  "type": "node",
  "id": 8018476048,
  "lat": 51.2055100,
  "lon": 2.8713789,
  "tags": {
    "access": "yes",
    "addr:city": "Oostende",
    "addr:country": "BE",
    "addr:postcode": "8400",
    "addr:street": "Nieuwpoortsesteenweg",
    "amenity": "charging_station",
    "authentication:app": "yes",
    "authentication:membership_card": "yes",
    "bicycle": "no",
    "capacity": "4",
    "fee": "yes",
    "motorcar": "yes",
    "name": "Fastned Oostende luchthaven",
    "network": "Fastned",
    "opening_hours": "24/7",
    "operator": "Fastned",
    "operator:wikidata": "Q19935749",
    "parking:fee": "no",
    "payment:app": "yes",
    "payment:cards": "yes",
    "payment:cash": "no",
    "payment:contactless": "yes",
    "payment:credit_cards": "yes",
    "payment:maestro": "yes",
    "payment:mastercard": "yes",
    "payment:membership_card": "yes",
    "payment:visa": "yes",
    "ref": "50135",
    "socket:chademo": "2",
    "socket:chademo:output": "50 kW",
    "socket:type2_combo": "4",
    "socket:type2_combo:output": "300 kW",
    "source": "https://fastnedcharging.com/nl/locaties;Fastned (OCPI)",
    "source:date": "2022-06-07",
    "website": "https://fastnedcharging.com"
  }
},
{
  "type": "node",
  "id": 8022498293,
  "lat": 50.9706895,
  "lon": 3.8439534,
  "tags": {
    "access": "yes",
    "amenity": "charging_station",
    "authentication:app": "yes",
    "authentication:membership_card": "yes",
    "brand": "Ionity",
    "brand:wikidata": "Q42717773",
    "capacity": "2",
    "fee": "yes",
    "motorcar": "yes",
    "name": "IONITY Wetteren Noord",
    "opening_hours": "24/7",
    "operator": "Ionity",
    "payment:credit_cards": "no",
    "ref:EU:EVSE": "BE*ION*E405051",
    "socket:chademo": "1",
    "socket:chademo:output": "50kW",
    "socket:type2": "1",
    "socket:type2:output": "43kW",
    "socket:type2_combo": "1",
    "socket:type2_combo:output": "50kW"
  }
},
{
  "type": "node",
  "id": 8022498294,
  "lat": 50.9694431,
  "lon": 3.8416324,
  "tags": {
    "access": "yes",
    "amenity": "charging_station",
    "authentication:app": "yes",
    "authentication:membership_card": "yes",
    "brand": "Ionity",
    "brand:wikidata": "Q42717773",
    "capacity": "2",
    "fee": "yes",
    "motorcar": "yes",
    "name": "IONITY Froyennes Zuid",
    "opening_hours": "24/7",
    "operator": "Ionity",
    "payment:credit_cards": "no",
    "ref:EU:EVSE": "BE*ION*E405151-3",
    "socket:chademo": "1",
    "socket:chademo:output": "50kW",
    "socket:type2": "1",
    "socket:type2:output": "43kW",
    "socket:type2_combo": "1",
    "socket:type2_combo:output": "50kW"
  }
},
{
  "type": "node",
  "id": 8048384449,
  "lat": 50.5738287,
  "lon": 4.6905635,
  "tags": {
    "amenity": "charging_station",
    "authentication:app": "yes",
    "authentication:membership_card": "yes",
    "authentication:nfc": "yes",
    "capacity": "1",
    "fee": "yes",
    "motorcar": "yes",
    "name": "Delvaux Percy Audi Fast Charger (DC)",
    "opening_hours": "24/7",
    "operator": "Audi",
    "panoramax:0": "c8681af3-706a-4e67-a00e-73006e29e72e",
    "socket:chademo": "1",
    "socket:chademo:output": "50 kW",
    "socket:type2_combo": "1",
    "socket:type2_combo:output": "50 kW"
  }
},
{
  "type": "node",
  "id": 8048387314,
  "lat": 50.6765861,
  "lon": 4.2743061,
  "tags": {
    "access": "customers",
    "amenity": "charging_station",
    "authentication:none": "no",
    "bicycle": "no",
    "bus": "no",
    "capacity": "2",
    "fee": "yes",
    "hgv": "no",
    "motorcar": "yes",
    "name": "Lidl Braine-le-Château",
    "operator": "Lidl",
    "operator:wikidata": "Q151954",
    "operator:wikipedia": "en:Lidl",
    "panoramax": "52b3780e-82f3-4991-845e-138c453e0366",
    "parking:fee": "no",
    "scooter": "no",
    "socket:chademo": "1",
    "socket:chademo:output": "50 kW",
    "socket:type2": "1",
    "socket:type2:output": "22 kW",
    "socket:type2_combo": "1",
    "socket:type2_combo:output": "50 kW"
  }
},
{
  "type": "node",
  "id": 8165847021,
  "lat": 50.7170398,
  "lon": 6.1188336,
  "tags": {
    "amenity": "charging_station",
    "authentication:nfc": "yes",
    "capacity": "3",
    "motorcar": "yes",
    "name": "TOTAL E40 Lichtenbusch Sud",
    "operator": "Allego",
    "operator:wikidata": "Q75560554",
    "ref": "BEALLEGO000031",
    "socket:chademo": "1",
    "socket:chademo:output": "50 kW",
    "socket:type2": "1",
    "socket:type2:output": "43 kW",
    "socket:type2_combo": "1",
    "socket:type2_combo:output": "50 kW"
  }
},
{
  "type": "node",
  "id": 8340064287,
  "lat": 50.4390234,
  "lon": 3.9465514,
  "tags": {
    "access": "customers",
    "amenity": "charging_station",
    "authentication:none": "no",
    "bicycle": "no",
    "bus": "no",
    "capacity": "2",
    "fee": "yes",
    "hgv": "no",
    "motorcar": "yes",
    "name": "Lidl Mons - Hyon-Avenue du Bélian",
    "opening_hours": "Mo-Fr 08:30-20:00; Sa 08:30-19:00",
    "operator": "Lidl",
    "operator:wikidata": "Q151954",
    "operator:wikipedia": "en:Lidl",
    "parking:fee": "no",
    "scooter": "no",
    "socket:chademo": "1",
    "socket:chademo:output": "50 kW",
    "socket:type2": "1",
    "socket:type2:output": "22 kW",
    "socket:type2_combo": "1",
    "socket:type2_combo:output": "50 kW"
  }
},
{
  "type": "node",
  "id": 8363550913,
  "lat": 50.5930933,
  "lon": 5.3029580,
  "tags": {
    "addr:city": "Verlaine",
    "addr:postcode": "4537",
    "addr:street": "A15",
    "amenity": "charging_station",
    "authentication:app": "yes",
    "authentication:membership_card": "yes",
    "capacity": "2",
    "fee": "yes",
    "motorcar": "yes",
    "name": "Aire de Verlaine Nord",
    "opening_hours": "24/7",
    "operator": "Q8",
    "payment:credit_cards": "no",
    "socket:chademo": "1",
    "socket:chademo:output": "50 kW",
    "socket:type2_combo": "1",
    "socket:type2_combo:output": "20 kW"
  }
},
{
  "type": "node",
  "id": 8363550916,
  "lat": 50.5923422,
  "lon": 5.3038514,
  "tags": {
    "addr:city": "Verlaine",
    "addr:postcode": "4537",
    "addr:street": "A15",
    "amenity": "charging_station",
    "authentication:app": "yes",
    "authentication:membership_card": "yes",
    "capacity": "2",
    "fee": "yes",
    "motorcar": "yes",
    "name": "Aire de Verlaine Sud",
    "opening_hours": "24/7",
    "operator": "Q8",
    "payment:credit_cards": "no",
    "socket:chademo": "1",
    "socket:chademo:output": "50 kW",
    "socket:type2": "1",
    "socket:type2:output": "22 kW",
    "socket:type2_combo": "1",
    "socket:type2_combo:output": "20 kW"
  }
},
{
  "type": "node",
  "id": 8516431764,
  "lat": 50.9219551,
  "lon": 3.1506364,
  "tags": {
    "amenity": "charging_station",
    "authentication:app": "yes",
    "authentication:membership_card": "yes",
    "capacity": "4",
    "fee": "yes",
    "motorcar": "yes",
    "name": "Fastned Roeselare R.Plaza",
    "opening_hours": "24/7",
    "operator": "Fastned",
    "operator:wikidata": "Q19935749",
    "ref": "50297",
    "socket:chademo": "4",
    "socket:chademo:output": "50 kW",
    "socket:type2_combo": "4",
    "socket:type2_combo:output": "50 kW",
    "source": "https://fastnedcharging.com/nl/locaties",
    "source:date": "2022-06-07",
    "website": "https://fastnedcharging.com"
  }
},
{
  "type": "node",
  "id": 8945447912,
  "lat": 51.2243661,
  "lon": 3.2266012,
  "tags": {
    "amenity": "charging_station",
    "authentication:membership_card": "yes",
    "colour": "white",
    "fee": "yes",
    "manufacturer": "ABB",
    "manufacturer:wikidata": "Q52825",
    "model": "Terra CE 54 CJG 4N1-7M-0-0",
    "model:ref": "6AGC063056",
    "motorcar": "yes",
    "opening_hours": "24/7",
    "operator": "Total",
    "operator:wikidata": "Q154037",
    "payment:cash": "no",
    "payment:credit_cards": "no",
    "payment:debit_cards": "no",
    "payment:website": "https://tot.al/ev",
    "socket:chademo": "1",
    "socket:chademo:current": "125",
    "socket:chademo:frequency": "0",
    "socket:chademo:output": "50 kW",
    "socket:chademo:voltage": "150-500",
    "socket:type2_cable": "1",
    "socket:type2_cable:current": "63",
    "socket:type2_cable:frequency": "50",
    "socket:type2_cable:output": "43 kW",
    "socket:type2_cable:voltage": "400",
    "socket:type2_combo": "1",
    "socket:type2_combo:current": "125",
    "socket:type2_combo:frequency": "0",
    "socket:type2_combo:output": "50 kW",
    "socket:type2_combo:voltage": "150-500",
    "weight": "0.347 t"
  }
},
{
  "type": "node",
  "id": 8972200428,
  "lat": 50.9361363,
  "lon": 4.4757633,
  "tags": {
    "amenity": "charging_station",
    "authentication:app": "yes",
    "authentication:membership_card": "yes",
    "capacity": "8",
    "fee": "yes",
    "motorcar": "yes",
    "name": "Fastned Peutie Oost",
    "opening_hours": "24/7",
    "operator": "Fastned",
    "operator:wikidata": "Q19935749",
    "ref": "50466",
    "socket:chademo": "3",
    "socket:chademo:output": "50 kW",
    "socket:type2_combo": "8",
    "socket:type2_combo:output": "300 kW",
    "source": "https://fastnedcharging.com/nl/locaties",
    "source:date": "2022-06-07",
    "website": "https://fastnedcharging.com"
  }
},
{
  "type": "node",
  "id": 8972200429,
  "lat": 50.9383645,
  "lon": 4.4754789,
  "tags": {
    "amenity": "charging_station",
    "authentication:app": "yes",
    "authentication:membership_card": "yes",
    "capacity": "8",
    "fee": "yes",
    "motorcar": "yes",
    "name": "Fastned Peutie West",
    "opening_hours": "24/7",
    "operator": "Fastned",
    "operator:wikidata": "Q19935749",
    "ref": "50465",
    "socket:chademo": "3",
    "socket:chademo:output": "50 kW",
    "socket:type2_combo": "8",
    "socket:type2_combo:output": "300 kW",
    "source": "https://fastnedcharging.com/nl/locaties",
    "source:date": "2022-10-11",
    "website": "https://fastnedcharging.com"
  }
},
{
  "type": "node",
  "id": 9011010431,
  "lat": 51.2210780,
  "lon": 3.2004535,
  "tags": {
    "amenity": "charging_station",
    "authentication:membership_card": "yes",
    "colour": "white",
    "fee": "yes",
    "manufacturer": "ABB",
    "manufacturer:wikidata": "Q52825",
    "model": "Terra CE 54 CJG 4N1-7M-0-0",
    "model:ref": "6AGC063056",
    "motorcar": "yes",
    "opening_hours": "24/7",
    "operator": "TotalEnergies",
    "operator:wikidata": "Q154037",
    "payment:cash": "no",
    "payment:credit_cards": "no",
    "payment:debit_cards": "no",
    "payment:website": "https://tot.al/ev",
    "serial_number": "T54-HU1-2920-003",
    "socket:chademo": "1",
    "socket:chademo:current": "125",
    "socket:chademo:frequency": "0",
    "socket:chademo:output": "50 kW",
    "socket:chademo:voltage": "150-500",
    "socket:type2_cable": "1",
    "socket:type2_cable:current": "63",
    "socket:type2_cable:frequency": "50",
    "socket:type2_cable:output": "43 kW",
    "socket:type2_cable:voltage": "400",
    "socket:type2_combo": "1",
    "socket:type2_combo:current": "125",
    "socket:type2_combo:frequency": "0",
    "socket:type2_combo:output": "50 kW",
    "socket:type2_combo:voltage": "150-500",
    "weight": "0.347 t"
  }
},
{
  "type": "node",
  "id": 9293627596,
  "lat": 51.0832363,
  "lon": 3.4445933,
  "tags": {
    "access": "yes",
    "amenity": "charging_station",
    "authentication:app": "yes",
    "authentication:contactless": "yes",
    "authentication:membership_card": "yes",
    "authentication:none": "yes",
    "capacity": "6",
    "check_date": "2024-03-03",
    "fee": "yes",
    "motorcar": "yes",
    "name": "Fastned Aalter",
    "network": "Fastned",
    "opening_hours": "24/7",
    "operator": "Fastned",
    "operator:wikidata": "Q19935749",
    "phone": "+32 9 298 25 60",
    "ref": "50559",
    "socket:chademo": "3",
    "socket:chademo:output": "50 kW",
    "socket:type2_combo": "6",
    "socket:type2_combo:output": "300 kW",
    "source": "https://fastnedcharging.com/nl/locaties",
    "source:date": "2022-06-07",
    "website": "https://fastnedcharging.com",
    "wikimedia_commons": "File:Elektrisch laadstation voor wagens - Aalter - 2021-01.jpg"
  }
},
{
  "type": "node",
  "id": 9386071610,
  "lat": 50.9520200,
  "lon": 4.9981230,
  "tags": {
    "amenity": "charging_station",
    "authentication:app": "yes",
    "authentication:membership_card": "yes",
    "capacity": "4",
    "fee": "yes",
    "motorcar": "yes",
    "name": "Fastned Bekkevoort",
    "opening_hours": "24/7",
    "operator": "Fastned",
    "operator:wikidata": "Q19935749",
    "operator:wikipedia": "en:Fastned",
    "ref": "50597",
    "socket:chademo": "2",
    "socket:chademo:output": "50 kW",
    "socket:type2_combo": "4",
    "socket:type2_combo:output": "300 kW",
    "source": "https://fastnedcharging.com/nl/locaties",
    "source:date": "2022-06-07",
    "website": "https://fastnedcharging.com/"
  }
},
{
  "type": "node",
  "id": 9420861770,
  "lat": 51.0397452,
  "lon": 4.4599718,
  "tags": {
    "amenity": "charging_station",
    "bicycle": "no",
    "fee": "yes",
    "manufacturer": "Efacec",
    "mapillary": "https://www.mapillary.com/app/?pKey=231610955788492",
    "motorcar": "yes",
    "operator": "Blue Corner",
    "operator:wikidata": "Q106902344",
    "socket:chademo": "1",
    "socket:chademo:output": "50 kW",
    "socket:type2": "1",
    "socket:type2:output": "43 kW",
    "socket:type2_combo": "1",
    "socket:type2_combo:output": "50 kW"
  }
},
{
  "type": "node",
  "id": 9433430968,
  "lat": 50.7431813,
  "lon": 4.2452814,
  "tags": {
    "access": "yes",
    "amenity": "charging_station",
    "bicycle": "no",
    "bus": "no",
    "capacity": "2",
    "charge": "https://www.edi.be/",
    "email": "audi@donboscogarage.be",
    "fee": "yes",
    "hgv": "no",
    "image": "https://i.imgur.com/a2HTFWj.jpg",
    "maxstay": "unlimited",
    "motorcar": "yes",
    "no:network": "yes",
    "opening_hours": "Mo-Fr 00:00-07:30, 18:30-00:00; Sa 00:00-07:30, 16:00-00:00; Su 00:00-00:00",
    "operator": "Audi Don Bosco",
    "panoramax:0": "63dee611-0927-411d-a5c8-f7787c7a7d38",
    "panoramax:1": "9d46dd80-3169-41e6-877a-536a880b99df",
    "panoramax:2": "73d90ca3-1052-4db1-b60d-a97c51e0dff3",
    "parking:fee": "no",
    "payment:app": "yes",
    "payment:cards": "no",
    "payment:cash": "no",
    "payment:membership_card": "yes",
    "phone": "+32 2 359 91 59",
    "scooter": "no",
    "socket:chademo": "1",
    "socket:chademo:output": "50 kW",
    "socket:type2_combo": "1",
    "socket:type2_combo:output": "50 kW",
    "website": "https://www.brusselsautogroup.be/nl/audi/halle/donbosco"
  }
},
{
  "type": "node",
  "id": 9444231067,
  "lat": 50.8686206,
  "lon": 4.5451071,
  "tags": {
    "amenity": "charging_station",
    "authentication:app": "yes",
    "authentication:membership_card": "yes",
    "brand": "Fastned",
    "fee": "yes",
    "motorcar": "yes",
    "name": "Fastned Everberg Zuid",
    "opening_hours": "24/7",
    "operator": "Fastned",
    "operator:wikidata": "Q19935749",
    "ref": "50550",
    "socket:chademo": "2",
    "socket:chademo:output": "50 kW",
    "socket:type2_combo": "4",
    "socket:type2_combo:output": "300 kW",
    "source": "https://fastnedcharging.com/nl/locaties",
    "source:date": "2022-06-07",
    "website": "https://fastnedcharging.com"
  }
},
{
  "type": "node",
  "id": 9444231068,
  "lat": 50.8699564,
  "lon": 4.5453295,
  "tags": {
    "amenity": "charging_station",
    "authentication:app": "yes",
    "authentication:membership_card": "yes",
    "brand": "Fastned",
    "fee": "yes",
    "fixme": "Position and shape of the structures not clear / to draw",
    "motorcar": "yes",
    "name": "Fastned Everberg Noord",
    "opening_hours": "24/7",
    "operator": "Fastned",
    "operator:wikidata": "Q19935749",
    "ref": "50549",
    "socket:chademo": "2",
    "socket:chademo:output": "50 kW",
    "socket:type2_combo": "4",
    "socket:type2_combo:output": "300 kW",
    "source": "https://fastnedcharging.com/nl/locaties",
    "source:date": "2022-06-07",
    "website": "https://fastnedcharging.com"
  }
},
{
  "type": "node",
  "id": 9468814678,
  "lat": 50.6979587,
  "lon": 4.2051464,
  "tags": {
    "access": "customers",
    "amenity": "charging_station",
    "authentication:none": "no",
    "bicycle": "no",
    "bus": "no",
    "capacity": "2",
    "fee": "yes",
    "hgv": "no",
    "maxstay": "unlimited",
    "motorcar": "yes",
    "name": "Lidl Tubize",
    "network": "Lidl",
    "opening_hours": "Mo-Fr 08:30-20:00; PH off; Sa 08:30-19:00",
    "operator": "Lidl",
    "operator:wikidata": "Q151954",
    "operator:wikipedia": "en:Lidl",
    "panoramax": "c47665f5-89df-45d9-af25-787ef7401580",
    "panoramax:0": "96161683-3257-4785-86ae-e456b9c9115c",
    "panoramax:1": "7592e465-eec2-4148-a84c-fe254a9e301d",
    "parking:fee": "no",
    "phone": "+32 800 73 520",
    "scooter": "no",
    "socket:chademo": "1",
    "socket:chademo:output": "50 kW",
    "socket:type2": "1",
    "socket:type2:output": "22 kW",
    "socket:type2_combo": "1",
    "socket:type2_combo:output": "50 kW",
    "website": "https://service.lidl.be/SelfServiceBE/s/article/Laadpaal-Wanneer-en-hoe-lang-kan-ik-mijn-auto-opladen?language=nl_BE"
  }
},
{
  "type": "node",
  "id": 9526792000,
  "lat": 51.3014357,
  "lon": 4.4372299,
  "tags": {
    "access": "customers",
    "amenity": "charging_station",
    "authentication:none": "no",
    "bicycle": "no",
    "bus": "no",
    "capacity": "2",
    "fee": "yes",
    "hgv": "no",
    "motorcar": "yes",
    "name": "Lidl Kapellen",
    "operator": "Lidl",
    "operator:wikidata": "Q151954",
    "operator:wikipedia": "en:Lidl",
    "panoramax": "39df9974-95b8-4a91-b235-9e2f6391da3a",
    "parking:fee": "no",
    "scooter": "no",
    "socket:chademo": "1",
    "socket:chademo:output": "50 kW",
    "socket:type2": "1",
    "socket:type2:output": "22 kW",
    "socket:type2_combo": "1",
    "socket:type2_combo:output": "50 kW"
  }
},
{
  "type": "node",
  "id": 9533329869,
  "lat": 50.9481866,
  "lon": 4.3151199,
  "tags": {
    "access": "customers",
    "amenity": "charging_station",
    "authentication:none": "no",
    "bus": "no",
    "capacity": "2",
    "fee": "yes",
    "hgv": "no",
    "name": "Lidl Wolvertem",
    "operator": "Lidl",
    "operator:wikidata": "Q151954",
    "operator:wikipedia": "en:Lidl",
    "parking:fee": "no",
    "socket:chademo": "1",
    "socket:chademo:output": "50 kW",
    "socket:type2": "1",
    "socket:type2:output": "22 kW",
    "socket:type2_combo": "1",
    "socket:type2_combo:output": "50 kW"
  }
},
{
  "type": "node",
  "id": 9533329870,
  "lat": 50.7940724,
  "lon": 4.2831060,
  "tags": {
    "access": "customers",
    "amenity": "charging_station",
    "authentication:none": "no",
    "bicycle": "no",
    "bus": "no",
    "capacity": "2",
    "fee": "yes",
    "hgv": "no",
    "motorcar": "yes",
    "name": "Lidl Sint-Pieters-Leeuw",
    "operator": "Lidl",
    "operator:wikidata": "Q151954",
    "operator:wikipedia": "en:Lidl",
    "panoramax": "39df9974-95b8-4a91-b235-9e2f6391da3a",
    "parking:fee": "no",
    "scooter": "no",
    "socket:chademo": "1",
    "socket:chademo:output": "50 kW",
    "socket:type2": "1",
    "socket:type2:output": "22 kW",
    "socket:type2_combo": "1",
    "socket:type2_combo:output": "50 kW"
  }
},
{
  "type": "node",
  "id": 9533383363,
  "lat": 51.2707351,
  "lon": 5.0785624,
  "tags": {
    "access": "customers",
    "amenity": "charging_station",
    "authentication:none": "no",
    "bicycle": "no",
    "bus": "no",
    "capacity": "2",
    "fee": "yes",
    "hgv": "no",
    "motorcar": "yes",
    "name": "Lidl Retie - Turnhoutsebaan",
    "operator": "Lidl",
    "operator:wikidata": "Q151954",
    "operator:wikipedia": "en:Lidl",
    "parking:fee": "no",
    "scooter": "no",
    "socket:chademo": "1",
    "socket:chademo:output": "50 kW",
    "socket:type2": "1",
    "socket:type2:output": "22 kW",
    "socket:type2_combo": "1",
    "socket:type2_combo:output": "50 kW"
  }
},
{
  "type": "node",
  "id": 9533389735,
  "lat": 50.7383209,
  "lon": 5.6665736,
  "tags": {
    "access": "customers",
    "amenity": "charging_station",
    "authentication:none": "no",
    "bus": "no",
    "capacity": "2",
    "fee": "yes",
    "hgv": "no",
    "name": "Lidl Haccourt -Oupeye-Av. Libert Froidmo",
    "operator": "Lidl",
    "operator:wikidata": "Q151954",
    "operator:wikipedia": "en:Lidl",
    "parking:fee": "no",
    "socket:chademo": "1",
    "socket:chademo:output": "50 kW",
    "socket:type2": "1",
    "socket:type2:output": "22 kW",
    "socket:type2_combo": "1",
    "socket:type2_combo:output": "50 kW"
  }
},
{
  "type": "node",
  "id": 9535686049,
  "lat": 51.3465541,
  "lon": 4.7669593,
  "tags": {
    "access": "customers",
    "amenity": "charging_station",
    "authentication:none": "no",
    "bus": "no",
    "capacity": "2",
    "fee": "yes",
    "hgv": "no",
    "name": "Lidl Rijkevorsel",
    "operator": "Lidl",
    "operator:wikidata": "Q151954",
    "operator:wikipedia": "en:Lidl",
    "parking:fee": "no",
    "socket:chademo": "1",
    "socket:chademo:output": "50 kW",
    "socket:type2": "1",
    "socket:type2:output": "22 kW",
    "socket:type2_combo": "1",
    "socket:type2_combo:output": "50 kW"
  }
},
{
  "type": "node",
  "id": 9535748388,
  "lat": 50.6672064,
  "lon": 5.5575715,
  "tags": {
    "access": "customers",
    "amenity": "charging_station",
    "authentication:none": "no",
    "bus": "no",
    "capacity": "2",
    "fee": "yes",
    "hgv": "no",
    "name": "Lidl Rocourt",
    "operator": "Lidl",
    "operator:wikidata": "Q151954",
    "operator:wikipedia": "en:Lidl",
    "parking:fee": "no",
    "socket:chademo": "1",
    "socket:chademo:output": "50 kW",
    "socket:type2": "1",
    "socket:type2:output": "22 kW",
    "socket:type2_combo": "1",
    "socket:type2_combo:output": "50 kW"
  }
},
{
  "type": "node",
  "id": 9535748390,
  "lat": 51.2334944,
  "lon": 4.8303916,
  "tags": {
    "access": "customers",
    "amenity": "charging_station",
    "authentication:none": "no",
    "bus": "no",
    "capacity": "2",
    "fee": "yes",
    "hgv": "no",
    "name": "Lidl Lille",
    "operator": "Lidl",
    "operator:wikidata": "Q151954",
    "operator:wikipedia": "en:Lidl",
    "parking:fee": "no",
    "socket:chademo": "1",
    "socket:chademo:output": "50 kW",
    "socket:type2": "1",
    "socket:type2:output": "22 kW",
    "socket:type2_combo": "1",
    "socket:type2_combo:output": "50 kW"
  }
},
{
  "type": "node",
  "id": 9535748391,
  "lat": 51.0330518,
  "lon": 2.8728994,
  "tags": {
    "access": "customers",
    "amenity": "charging_station",
    "authentication:none": "no",
    "bus": "no",
    "capacity": "2",
    "fee": "yes",
    "hgv": "no",
    "name": "Lidl Diksmuide",
    "operator": "Lidl",
    "operator:wikidata": "Q151954",
    "parking:fee": "no",
    "socket:chademo": "1",
    "socket:chademo:output": "50 kW",
    "socket:type2": "1",
    "socket:type2:output": "22 kW",
    "socket:type2_combo": "1",
    "socket:type2_combo:output": "50 kW"
  }
},
{
  "type": "node",
  "id": 9535748392,
  "lat": 51.2185030,
  "lon": 5.4283759,
  "tags": {
    "access": "customers",
    "amenity": "charging_station",
    "authentication:none": "no",
    "bus": "no",
    "capacity": "2",
    "fee": "yes",
    "hgv": "no",
    "name": "Lidl Overpelt",
    "operator": "Lidl",
    "operator:wikidata": "Q151954",
    "operator:wikipedia": "en:Lidl",
    "parking:fee": "no",
    "socket:chademo": "1",
    "socket:chademo:output": "50 kW",
    "socket:type2": "1",
    "socket:type2:output": "22 kW",
    "socket:type2_combo": "1",
    "socket:type2_combo:output": "50 kW"
  }
},
{
  "type": "node",
  "id": 9535748393,
  "lat": 51.1663350,
  "lon": 4.1527562,
  "tags": {
    "access": "customers",
    "amenity": "charging_station",
    "authentication:none": "no",
    "bus": "no",
    "capacity": "2",
    "fee": "yes",
    "hgv": "no",
    "name": "Lidl Sint-Niklaas",
    "operator": "Lidl",
    "operator:wikidata": "Q151954",
    "operator:wikipedia": "en:Lidl",
    "parking:fee": "no",
    "socket:chademo": "1",
    "socket:chademo:output": "50 kW",
    "socket:type2": "1",
    "socket:type2:output": "22 kW",
    "socket:type2_combo": "1",
    "socket:type2_combo:output": "50 kW"
  }
},
{
  "type": "node",
  "id": 9535748394,
  "lat": 50.4409359,
  "lon": 3.8462935,
  "tags": {
    "access": "customers",
    "amenity": "charging_station",
    "authentication:none": "no",
    "bus": "no",
    "capacity": "2",
    "fee": "yes",
    "hgv": "no",
    "name": "Lidl Quaregnon",
    "operator": "Lidl",
    "operator:wikidata": "Q151954",
    "operator:wikipedia": "en:Lidl",
    "parking:fee": "no",
    "socket:chademo": "1",
    "socket:chademo:output": "50 kW",
    "socket:type2": "1",
    "socket:type2:output": "22 kW",
    "socket:type2_combo": "1",
    "socket:type2_combo:output": "50 kW"
  }
},
{
  "type": "node",
  "id": 9544699497,
  "lat": 50.5996752,
  "lon": 5.8525797,
  "tags": {
    "access": "customers",
    "amenity": "charging_station",
    "authentication:none": "no",
    "bicycle": "no",
    "bus": "no",
    "capacity": "2",
    "fee": "yes",
    "hgv": "no",
    "motorcar": "yes",
    "name": "Lidl Dison",
    "operator": "Lidl",
    "operator:wikidata": "Q151954",
    "operator:wikipedia": "en:Lidl",
    "parking:fee": "no",
    "scooter": "no",
    "socket:chademo": "1",
    "socket:chademo:output": "50 kW",
    "socket:type2": "1",
    "socket:type2:output": "22 kW",
    "socket:type2_combo": "1",
    "socket:type2_combo:output": "50 kW"
  }
},
{
  "type": "node",
  "id": 9544699498,
  "lat": 50.6613837,
  "lon": 5.6310265,
  "tags": {
    "access": "customers",
    "amenity": "charging_station",
    "authentication:none": "no",
    "bus": "no",
    "capacity": "2",
    "fee": "yes",
    "hgv": "no",
    "name": "Lidl Herstal",
    "operator": "Lidl",
    "operator:wikidata": "Q151954",
    "operator:wikipedia": "en:Lidl",
    "parking:fee": "no",
    "socket:chademo": "1",
    "socket:chademo:output": "50 kW",
    "socket:type2": "1",
    "socket:type2:output": "22 kW",
    "socket:type2_combo": "1",
    "socket:type2_combo:output": "50 kW"
  }
},
{
  "type": "node",
  "id": 9544699499,
  "lat": 50.6072945,
  "lon": 5.5163048,
  "tags": {
    "access": "customers",
    "amenity": "charging_station",
    "authentication:none": "no",
    "bus": "no",
    "capacity": "2",
    "fee": "yes",
    "hgv": "no",
    "name": "Lidl Seraing",
    "operator": "Lidl",
    "operator:wikidata": "Q151954",
    "operator:wikipedia": "en:Lidl",
    "parking:fee": "no",
    "socket:chademo": "1",
    "socket:chademo:output": "50 kW",
    "socket:type2": "1",
    "socket:type2:output": "22 kW",
    "socket:type2_combo": "1",
    "socket:type2_combo:output": "50 kW"
  }
},
{
  "type": "node",
  "id": 9544699500,
  "lat": 50.6817359,
  "lon": 5.4649573,
  "tags": {
    "access": "customers",
    "amenity": "charging_station",
    "authentication:none": "no",
    "bus": "no",
    "capacity": "2",
    "fee": "yes",
    "hgv": "no",
    "name": "Lidl Awans",
    "operator": "Lidl",
    "operator:wikidata": "Q151954",
    "operator:wikipedia": "en:Lidl",
    "parking:fee": "no",
    "socket:chademo": "1",
    "socket:chademo:output": "50 kW",
    "socket:type2": "1",
    "socket:type2:output": "22 kW",
    "socket:type2_combo": "1",
    "socket:type2_combo:output": "50 kW"
  }
},
{
  "type": "node",
  "id": 9545302724,
  "lat": 50.8651478,
  "lon": 4.5150222,
  "tags": {
    "access": "customers",
    "amenity": "charging_station",
    "authentication:none": "no",
    "bus": "no",
    "capacity": "2",
    "fee": "yes",
    "hgv": "no",
    "name": "Lidl Sterrebeek",
    "opening_hours": "Mo-Fr 08:30-20:00; Sa 08:30-19:00; PH off",
    "operator": "Lidl",
    "operator:wikidata": "Q151954",
    "operator:wikipedia": "en:Lidl",
    "parking:fee": "no",
    "socket:chademo": "1",
    "socket:chademo:output": "50 kW",
    "socket:type2": "1",
    "socket:type2:output": "22 kW",
    "socket:type2_combo": "1",
    "socket:type2_combo:output": "50 kW"
  }
},
{
  "type": "node",
  "id": 9547091916,
  "lat": 51.1501416,
  "lon": 2.9555216,
  "tags": {
    "access": "customers",
    "amenity": "charging_station",
    "authentication:none": "no",
    "bus": "no",
    "capacity": "2",
    "fee": "yes",
    "hgv": "no",
    "motorcar": "yes",
    "name": "Lidl Gistel",
    "operator": "Lidl",
    "operator:wikidata": "Q151954",
    "parking:fee": "no",
    "socket:chademo": "1",
    "socket:chademo:output": "50 kW",
    "socket:type2": "1",
    "socket:type2:output": "22 kW",
    "socket:type2_combo": "1",
    "socket:type2_combo:output": "50 kW"
  }
},
{
  "type": "node",
  "id": 9547106190,
  "lat": 50.8778854,
  "lon": 3.8176753,
  "tags": {
    "access": "customers",
    "amenity": "charging_station",
    "authentication:none": "no",
    "bus": "no",
    "capacity": "2",
    "fee": "yes",
    "hgv": "no",
    "motorcar": "yes",
    "name": "Lidl Zottegem",
    "operator": "Lidl",
    "operator:wikidata": "Q151954",
    "operator:wikipedia": "en:Lidl",
    "parking:fee": "no",
    "socket:chademo": "1",
    "socket:chademo:output": "50 kW",
    "socket:type2": "1",
    "socket:type2:output": "22 kW",
    "socket:type2_combo": "1",
    "socket:type2_combo:output": "50 kW"
  }
},
{
  "type": "node",
  "id": 9547106191,
  "lat": 51.0226812,
  "lon": 3.7757992,
  "tags": {
    "access": "customers",
    "amenity": "charging_station",
    "authentication:none": "no",
    "bus": "no",
    "capacity": "2",
    "fee": "yes",
    "hgv": "no",
    "motorcar": "yes",
    "name": "Lidl Melle",
    "operator": "Lidl",
    "operator:wikidata": "Q151954",
    "operator:wikipedia": "en:Lidl",
    "parking:fee": "no",
    "socket:chademo": "1",
    "socket:chademo:output": "50 kW",
    "socket:type2": "1",
    "socket:type2:output": "22 kW",
    "socket:type2_combo": "1",
    "socket:type2_combo:output": "50 kW"
  }
},
{
  "type": "node",
  "id": 9547106192,
  "lat": 51.0515922,
  "lon": 3.7614859,
  "tags": {
    "access": "customers",
    "amenity": "charging_station",
    "authentication:none": "no",
    "bus": "no",
    "capacity": "2",
    "fee": "yes",
    "hgv": "no",
    "motorcar": "yes",
    "name": "Lidl Destelbergen",
    "operator": "Lidl",
    "operator:wikidata": "Q151954",
    "operator:wikipedia": "en:Lidl",
    "parking:fee": "no",
    "socket:chademo": "1",
    "socket:chademo:output": "50 kW",
    "socket:type2": "1",
    "socket:type2:output": "22 kW",
    "socket:type2_combo": "1",
    "socket:type2_combo:output": "50 kW"
  }
},
{
  "type": "node",
  "id": 9547106193,
  "lat": 51.1975101,
  "lon": 3.8254442,
  "tags": {
    "access": "customers",
    "amenity": "charging_station",
    "authentication:none": "no",
    "bus": "no",
    "capacity": "2",
    "fee": "yes",
    "hgv": "no",
    "motorcar": "yes",
    "name": "Lidl Zelzate",
    "operator": "Lidl",
    "operator:wikidata": "Q151954",
    "operator:wikipedia": "en:Lidl",
    "parking:fee": "no",
    "socket:chademo": "1",
    "socket:chademo:output": "50 kW",
    "socket:type2": "1",
    "socket:type2:output": "22 kW",
    "socket:type2_combo": "1",
    "socket:type2_combo:output": "50 kW"
  }
},
{
  "type": "node",
  "id": 9549315388,
  "lat": 49.8488841,
  "lon": 5.4370097,
  "tags": {
    "access": "customers",
    "amenity": "charging_station",
    "authentication:none": "no",
    "bicycle": "no",
    "bus": "no",
    "capacity": "2",
    "fee": "yes",
    "hgv": "no",
    "motorcar": "yes",
    "name": "Lidl Neufchâteau",
    "operator": "Lidl",
    "operator:wikidata": "Q151954",
    "operator:wikipedia": "en:Lidl",
    "panoramax": "39df9974-95b8-4a91-b235-9e2f6391da3a",
    "parking:fee": "no",
    "scooter": "no",
    "socket:chademo": "1",
    "socket:chademo:output": "50 kW",
    "socket:type2": "1",
    "socket:type2:output": "22 kW",
    "socket:type2_combo": "1",
    "socket:type2_combo:output": "50 kW"
  }
},
{
  "type": "node",
  "id": 9549501299,
  "lat": 50.7377478,
  "lon": 4.3319989,
  "tags": {
    "access": "customers",
    "amenity": "charging_station",
    "authentication:none": "no",
    "bicycle": "no",
    "bus": "no",
    "capacity": "2",
    "fee": "yes",
    "hgv": "no",
    "motorcar": "yes",
    "name": "Lidl Sint-Genesius-Rode",
    "operator": "Lidl",
    "operator:wikidata": "Q151954",
    "operator:wikipedia": "en:Lidl",
    "parking:fee": "no",
    "scooter": "no",
    "socket:chademo": "1",
    "socket:chademo:output": "50 kW",
    "socket:type2": "1",
    "socket:type2:output": "22 kW",
    "socket:type2_combo": "1",
    "socket:type2_combo:output": "50 kW"
  }
},
{
  "type": "node",
  "id": 9549514171,
  "lat": 50.3150536,
  "lon": 4.1321484,
  "tags": {
    "access": "customers",
    "amenity": "charging_station",
    "authentication:none": "no",
    "bicycle": "no",
    "bus": "no",
    "capacity": "2",
    "fee": "yes",
    "hgv": "no",
    "motorcar": "yes",
    "name": "Lidl Erquelinnes",
    "operator": "Lidl",
    "operator:wikidata": "Q151954",
    "operator:wikipedia": "en:Lidl",
    "parking:fee": "no",
    "scooter": "no",
    "socket:chademo": "1",
    "socket:chademo:output": "50 kW",
    "socket:type2": "1",
    "socket:type2:output": "22 kW",
    "socket:type2_combo": "1",
    "socket:type2_combo:output": "50 kW"
  }
},
{
  "type": "node",
  "id": 9549514172,
  "lat": 50.4078538,
  "lon": 3.8890744,
  "tags": {
    "access": "customers",
    "amenity": "charging_station",
    "authentication:none": "no",
    "bicycle": "no",
    "bus": "no",
    "capacity": "2",
    "fee": "yes",
    "hgv": "no",
    "motorcar": "yes",
    "name": "Lidl Frameries",
    "operator": "Lidl",
    "operator:wikidata": "Q151954",
    "operator:wikipedia": "en:Lidl",
    "parking:fee": "no",
    "scooter": "no",
    "socket:chademo": "1",
    "socket:chademo:output": "50 kW",
    "socket:type2": "1",
    "socket:type2:output": "22 kW",
    "socket:type2_combo": "1",
    "socket:type2_combo:output": "50 kW"
  }
},
{
  "type": "node",
  "id": 9549514173,
  "lat": 50.4709155,
  "lon": 3.9190205,
  "tags": {
    "access": "customers",
    "amenity": "charging_station",
    "authentication:none": "no",
    "bicycle": "no",
    "bus": "no",
    "capacity": "2",
    "fee": "yes",
    "hgv": "no",
    "motorcar": "yes",
    "name": "Lidl Ghlin",
    "operator": "Lidl",
    "operator:wikidata": "Q151954",
    "operator:wikipedia": "en:Lidl",
    "parking:fee": "no",
    "scooter": "no",
    "socket:chademo": "1",
    "socket:chademo:output": "50 kW",
    "socket:type2": "1",
    "socket:type2:output": "22 kW",
    "socket:type2_combo": "1",
    "socket:type2_combo:output": "50 kW"
  }
},
{
  "type": "node",
  "id": 9549514174,
  "lat": 50.4556295,
  "lon": 3.9747446,
  "tags": {
    "access": "yes",
    "amenity": "charging_station",
    "authentication:none": "no",
    "bicycle": "no",
    "bus": "no",
    "capacity": "2",
    "fee": "yes",
    "hgv": "no",
    "motorcar": "yes",
    "name": "Lidl Mons-Chaussée du Roeulx",
    "operator": "Lidl",
    "operator:wikidata": "Q151954",
    "operator:wikipedia": "en:Lidl",
    "parking:fee": "no",
    "scooter": "no",
    "socket:chademo": "1",
    "socket:chademo:output": "50 kW",
    "socket:type2": "1",
    "socket:type2:output": "22 kW",
    "socket:type2_combo": "1",
    "socket:type2_combo:output": "50 kW"
  }
},
{
  "type": "node",
  "id": 9550192523,
  "lat": 51.2609605,
  "lon": 4.5067311,
  "tags": {
    "access": "customers",
    "amenity": "charging_station",
    "authentication:none": "no",
    "bus": "no",
    "capacity": "2",
    "fee": "yes",
    "hgv": "no",
    "name": "Lidl Schoten",
    "operator": "Lidl",
    "operator:wikidata": "Q151954",
    "operator:wikipedia": "en:Lidl",
    "parking:fee": "no",
    "socket:chademo": "1",
    "socket:chademo:output": "50 kW",
    "socket:type2": "1",
    "socket:type2:output": "22 kW",
    "socket:type2_combo": "1",
    "socket:type2_combo:output": "50 kW"
  }
},
{
  "type": "node",
  "id": 9550192524,
  "lat": 51.1378492,
  "lon": 4.4368552,
  "tags": {
    "access": "customers",
    "amenity": "charging_station",
    "authentication:none": "no",
    "bus": "no",
    "capacity": "2",
    "fee": "yes",
    "hgv": "no",
    "name": "Lidl Kontich",
    "operator": "Lidl",
    "operator:wikidata": "Q151954",
    "operator:wikipedia": "en:Lidl",
    "parking:fee": "no",
    "socket:chademo": "1",
    "socket:chademo:output": "50 kW",
    "socket:type2": "1",
    "socket:type2:output": "22 kW",
    "socket:type2_combo": "1",
    "socket:type2_combo:output": "50 kW"
  }
},
{
  "type": "node",
  "id": 9550192525,
  "lat": 51.1860778,
  "lon": 4.3705546,
  "tags": {
    "access": "customers",
    "amenity": "charging_station",
    "authentication:none": "no",
    "bus": "no",
    "capacity": "2",
    "fee": "yes",
    "hgv": "no",
    "name": "Lidl Hoboken",
    "operator": "Lidl",
    "operator:wikidata": "Q151954",
    "operator:wikipedia": "en:Lidl",
    "parking:fee": "no",
    "socket:chademo": "1",
    "socket:chademo:output": "50 kW",
    "socket:type2": "1",
    "socket:type2:output": "22 kW",
    "socket:type2_combo": "1",
    "socket:type2_combo:output": "50 kW"
  }
},
{
  "type": "node",
  "id": 9632900970,
  "lat": 51.0088403,
  "lon": 4.5093947,
  "tags": {
    "access": "customers",
    "amenity": "charging_station",
    "authentication:none": "no",
    "bicycle": "no",
    "bus": "no",
    "capacity": "2",
    "fee": "yes",
    "hgv": "no",
    "motorcar": "yes",
    "name": "Lidl Mechelen",
    "operator": "Lidl",
    "operator:wikidata": "Q151954",
    "operator:wikipedia": "en:Lidl",
    "panoramax": "39df9974-95b8-4a91-b235-9e2f6391da3a",
    "parking:fee": "no",
    "scooter": "no",
    "socket:chademo": "1",
    "socket:chademo:output": "50 kW",
    "socket:type2": "1",
    "socket:type2:output": "22 kW",
    "socket:type2_combo": "1",
    "socket:type2_combo:output": "50 kW"
  }
},
{
  "type": "node",
  "id": 9632900971,
  "lat": 50.9619435,
  "lon": 4.5840230,
  "tags": {
    "access": "customers",
    "amenity": "charging_station",
    "authentication:none": "no",
    "bicycle": "no",
    "bus": "no",
    "capacity": "2",
    "fee": "yes",
    "hgv": "no",
    "motorcar": "yes",
    "name": "Lidl Kampenhout",
    "operator": "Lidl",
    "operator:wikidata": "Q151954",
    "operator:wikipedia": "en:Lidl",
    "panoramax": "39df9974-95b8-4a91-b235-9e2f6391da3a",
    "parking:fee": "no",
    "scooter": "no",
    "socket:chademo": "1",
    "socket:chademo:output": "50 kW",
    "socket:type2": "1",
    "socket:type2:output": "22 kW",
    "socket:type2_combo": "1",
    "socket:type2_combo:output": "50 kW"
  }
},
{
  "type": "node",
  "id": 9632900980,
  "lat": 51.0572527,
  "lon": 4.6368590,
  "tags": {
    "access": "customers",
    "amenity": "charging_station",
    "authentication:none": "no",
    "bicycle": "no",
    "bus": "no",
    "capacity": "2",
    "fee": "yes",
    "hgv": "no",
    "motorcar": "yes",
    "name": "Lidl Putte",
    "operator": "Lidl",
    "operator:wikidata": "Q151954",
    "operator:wikipedia": "en:Lidl",
    "panoramax": "39df9974-95b8-4a91-b235-9e2f6391da3a",
    "parking:fee": "no",
    "scooter": "no",
    "socket:chademo": "1",
    "socket:chademo:output": "50 kW",
    "socket:type2": "1",
    "socket:type2:output": "22 kW",
    "socket:type2_combo": "1",
    "socket:type2_combo:output": "50 kW"
  }
},
{
  "type": "node",
  "id": 9632900981,
  "lat": 51.2569680,
  "lon": 4.6227886,
  "tags": {
    "access": "customers",
    "amenity": "charging_station",
    "authentication:none": "no",
    "bicycle": "no",
    "bus": "no",
    "capacity": "2",
    "fee": "yes",
    "hgv": "no",
    "motorcar": "yes",
    "name": "Lidl Zoersel",
    "operator": "Lidl",
    "operator:wikidata": "Q151954",
    "operator:wikipedia": "en:Lidl",
    "panoramax": "39df9974-95b8-4a91-b235-9e2f6391da3a",
    "parking:fee": "no",
    "scooter": "no",
    "socket:chademo": "1",
    "socket:chademo:output": "50 kW",
    "socket:type2": "1",
    "socket:type2:output": "22 kW",
    "socket:type2_combo": "1",
    "socket:type2_combo:output": "50 kW"
  }
},
{
  "type": "node",
  "id": 9632900982,
  "lat": 51.3062076,
  "lon": 4.5659793,
  "tags": {
    "access": "customers",
    "amenity": "charging_station",
    "authentication:none": "no",
    "bicycle": "no",
    "bus": "no",
    "capacity": "2",
    "fee": "yes",
    "hgv": "no",
    "motorcar": "yes",
    "name": "Lidl Brecht-Beukenlei",
    "operator": "Lidl",
    "operator:wikidata": "Q151954",
    "operator:wikipedia": "en:Lidl",
    "panoramax": "39df9974-95b8-4a91-b235-9e2f6391da3a",
    "parking:fee": "no",
    "scooter": "no",
    "socket:chademo": "1",
    "socket:chademo:output": "50 kW",
    "socket:type2": "1",
    "socket:type2:output": "22 kW",
    "socket:type2_combo": "1",
    "socket:type2_combo:output": "50 kW"
  }
},
{
  "type": "node",
  "id": 9658402910,
  "lat": 50.8399230,
  "lon": 4.3243534,
  "tags": {
    "access": "customers",
    "amenity": "charging_station",
    "authentication:none": "no",
    "bicycle": "no",
    "bus": "no",
    "capacity": "2",
    "fee": "yes",
    "hgv": "no",
    "motorcar": "yes",
    "name": "Lidl Anderlecht",
    "operator": "Lidl",
    "operator:wikidata": "Q151954",
    "operator:wikipedia": "en:Lidl",
    "parking:fee": "no",
    "scooter": "no",
    "socket:chademo": "1",
    "socket:chademo:output": "50 kW",
    "socket:type2": "1",
    "socket:type2:output": "22 kW",
    "socket:type2_combo": "1",
    "socket:type2_combo:output": "50 kW"
  }
},
{
  "type": "node",
  "id": 9674162222,
  "lat": 50.8705387,
  "lon": 4.1603090,
  "tags": {
    "access": "customers",
    "amenity": "charging_station",
    "authentication:none": "no",
    "bicycle": "no",
    "bus": "no",
    "capacity": "2",
    "fee": "yes",
    "hgv": "no",
    "motorcar": "yes",
    "name": "Lidl Ternat",
    "operator": "Lidl",
    "operator:wikidata": "Q151954",
    "operator:wikipedia": "en:Lidl",
    "parking:fee": "no",
    "scooter": "no",
    "socket:chademo": "1",
    "socket:chademo:output": "50 kW",
    "socket:type2": "1",
    "socket:type2:output": "22 kW",
    "socket:type2_combo": "1",
    "socket:type2_combo:output": "50 kW"
  }
},
{
  "type": "node",
  "id": 9674216227,
  "lat": 50.6362098,
  "lon": 6.0213566,
  "tags": {
    "access": "customers",
    "amenity": "charging_station",
    "authentication:none": "no",
    "bus": "no",
    "capacity": "2",
    "fee": "yes",
    "hgv": "no",
    "name": "Lidl Wolvertem",
    "operator": "Lidl",
    "operator:wikidata": "Q151954",
    "operator:wikipedia": "en:Lidl",
    "parking:fee": "no",
    "socket:chademo": "1",
    "socket:chademo:output": "50 kW",
    "socket:type2": "1",
    "socket:type2:output": "22 kW",
    "socket:type2_combo": "1",
    "socket:type2_combo:output": "50 kW"
  }
},
{
  "type": "node",
  "id": 9674232034,
  "lat": 50.9782151,
  "lon": 4.9587956,
  "tags": {
    "access": "customers",
    "amenity": "charging_station",
    "authentication:none": "no",
    "bus": "no",
    "capacity": "2",
    "fee": "yes",
    "hgv": "no",
    "name": "Lidl Wolvertem",
    "operator": "Lidl",
    "operator:wikidata": "Q151954",
    "operator:wikipedia": "en:Lidl",
    "parking:fee": "no",
    "socket:chademo": "1",
    "socket:chademo:output": "50 kW",
    "socket:type2": "1",
    "socket:type2:output": "22 kW",
    "socket:type2_combo": "1",
    "socket:type2_combo:output": "50 kW"
  }
},
{
  "type": "node",
  "id": 9679728268,
  "lat": 50.9205574,
  "lon": 5.6857078,
  "tags": {
    "amenity": "charging_station",
    "authentication:app": "no",
    "authentication:membership_card": "yes",
    "opening_hours": "24/7",
    "socket:chademo": "1",
    "socket:chademo:output": "50 kW",
    "socket:type2": "1",
    "socket:type2:output": "22 kW"
  }
},
{
  "type": "node",
  "id": 9734340213,
  "lat": 50.8505280,
  "lon": 4.3341176,
  "tags": {
    "access": "customers",
    "amenity": "charging_station",
    "authentication:none": "no",
    "bus": "no",
    "capacity": "2",
    "fee": "yes",
    "hgv": "no",
    "name": "Lidl Molenbeek",
    "operator": "Lidl",
    "operator:wikidata": "Q151954",
    "operator:wikipedia": "en:Lidl",
    "parking:fee": "no",
    "socket:chademo": "1",
    "socket:chademo:output": "50 kW",
    "socket:type2": "1",
    "socket:type2:output": "22 kW",
    "socket:type2_combo": "1",
    "socket:type2_combo:output": "50 kW"
  }
},
{
  "type": "node",
  "id": 9734388322,
  "lat": 50.8375079,
  "lon": 4.5408341,
  "tags": {
    "access": "customers",
    "amenity": "charging_station",
    "authentication:none": "no",
    "bus": "no",
    "capacity": "2",
    "fee": "yes",
    "hgv": "no",
    "name": "Lidl Tervuren",
    "opening_hours": "Mo-Fr 08:30-20:00; Sa 08:30-19:00; PH off",
    "operator": "Lidl",
    "operator:wikidata": "Q151954",
    "operator:wikipedia": "en:Lidl",
    "panoramax": "0de17a9d-5f51-4a7c-b49c-1f90428b7a2a",
    "parking:fee": "no",
    "socket:chademo": "1",
    "socket:chademo:output": "50 kW",
    "socket:type2": "1",
    "socket:type2:output": "22 kW",
    "socket:type2_combo": "1",
    "socket:type2_combo:output": "50 kW"
  }
},
{
  "type": "node",
  "id": 9734388323,
  "lat": 50.8961172,
  "lon": 4.4316034,
  "tags": {
    "access": "customers",
    "amenity": "charging_station",
    "authentication:none": "no",
    "bus": "no",
    "capacity": "2",
    "fee": "yes",
    "hgv": "no",
    "name": "Lidl Machelen",
    "operator": "Lidl",
    "operator:wikidata": "Q151954",
    "operator:wikipedia": "en:Lidl",
    "parking:fee": "no",
    "socket:chademo": "1",
    "socket:chademo:output": "50 kW",
    "socket:type2": "1",
    "socket:type2:output": "22 kW",
    "socket:type2_combo": "1",
    "socket:type2_combo:output": "50 kW"
  }
},
{
  "type": "node",
  "id": 9812594295,
  "lat": 50.8952886,
  "lon": 5.4009969,
  "tags": {
    "amenity": "charging_station",
    "authentication:app": "yes",
    "authentication:membership_card": "yes",
    "capacity": "2",
    "fee": "yes",
    "motorcar": "yes",
    "name": "Fastned Diepenbeek Zuid",
    "opening_hours": "24/7",
    "operator": "Fastned",
    "operator:wikidata": "Q19935749",
    "ref": "50642",
    "socket:chademo": "2",
    "socket:chademo:output": "50 kW",
    "socket:type2_combo": "4",
    "socket:type2_combo:output": "300 kW",
    "source": "https://fastnedcharging.com/nl/locaties",
    "source:date": "2022-06-07",
    "website": "https://fastnedcharging.com"
  }
},
{
  "type": "node",
  "id": 9818108806,
  "lat": 50.8351240,
  "lon": 5.5099250,
  "tags": {
    "access": "yes",
    "amenity": "charging_station",
    "authentication:app": "yes",
    "authentication:membership_card": "yes",
    "brand": "Fastned",
    "capacity": "8",
    "fee": "yes",
    "motorcar": "yes",
    "name": "Fastned Hoeselt Oost",
    "opening_hours": "24/7",
    "operator": "Fastned",
    "operator:wikidata": "Q19935749",
    "ref": "50643",
    "socket:chademo": "2",
    "socket:chademo:output": "50 kW",
    "socket:type2_combo": "4",
    "socket:type2_combo:output": "300 kW",
    "source": "https://fastnedcharging.com/nl/locaties",
    "source:date": "2022-06-07",
    "website": "https://fastnedcharging.com"
  }
},
{
  "type": "node",
  "id": 9818240287,
  "lat": 51.3216629,
  "lon": 4.5859401,
  "tags": {
    "access": "yes",
    "amenity": "charging_station",
    "authentication:app": "yes",
    "authentication:membership_card": "yes",
    "capacity": "8",
    "fee": "yes",
    "motorcar": "yes",
    "name": "Fastned Brecht Oost",
    "opening_hours": "24/7",
    "operator": "Fastned",
    "operator:wikidata": "Q19935749",
    "ref": "50687",
    "socket:chademo": "2",
    "socket:chademo:output": "50 kW",
    "socket:type2_combo": "8",
    "socket:type2_combo:output": "300 kW",
    "source": "https://fastnedcharging.com/nl/locaties",
    "source:date": "2022-06-07",
    "website": "https://fastnedcharging.com"
  }
},
{
  "type": "node",
  "id": 9820756201,
  "lat": 50.8958286,
  "lon": 5.4038696,
  "tags": {
    "amenity": "charging_station",
    "authentication:app": "yes",
    "authentication:membership_card": "yes",
    "capacity": "2",
    "fee": "yes",
    "motorcar": "yes",
    "name": "Fastned Diepenbeek Noord",
    "opening_hours": "24/7",
    "operator": "Fastned",
    "operator:wikidata": "Q19935749",
    "ref": "50641",
    "socket:chademo": "2",
    "socket:chademo:output": "50 kW",
    "socket:type2_combo": "4",
    "socket:type2_combo:output": "300 kW",
    "source": "https://fastnedcharging.com/nl/locaties",
    "source:date": "2022-06-07",
    "website": "https://fastnedcharging.com"
  }
},
{
  "type": "node",
  "id": 9820765517,
  "lat": 50.9543810,
  "lon": 5.6947280,
  "tags": {
    "amenity": "charging_station",
    "authentication:app": "yes",
    "authentication:membership_card": "yes",
    "fee": "yes",
    "motorcar": "yes",
    "name": "Fastned Carpool Maasmechelen",
    "opening_hours": "24/7",
    "operator": "Fastned",
    "operator:wikidata": "Q19935749",
    "ref": "50596",
    "socket:chademo": "2",
    "socket:chademo:output": "50 kW",
    "socket:type2_combo": "4",
    "socket:type2_combo:output": "300 kW",
    "source": "https://fastnedcharging.com/nl/locaties",
    "source:date": "2022-06-07",
    "website": "https://fastnedcharging.com"
  }
},
{
  "type": "node",
  "id": 9836424873,
  "lat": 50.8786893,
  "lon": 4.3731165,
  "tags": {
    "access": "customers",
    "amenity": "charging_station",
    "brand": "Tesla Supercharger",
    "brand:wikidata": "Q17089620",
    "capacity": "8",
    "contact:phone": "+31 13 799 9525",
    "contact:website": "https://www.tesla.com/findus/location/supercharger/BrusselsBelgiumsupercharger",
    "fee": "yes",
    "motorcar": "yes",
    "name": "Brussels Supercharger",
    "opening_hours": "24/7",
    "operator": "Tesla",
    "operator:wikidata": "Q478214",
    "parking:fee": "no",
    "short_name": "Tesla",
    "socket:tesla_supercharger_ccs": "8",
    "socket:tesla_supercharger_ccs:output": "250 kW",
    "source": "Tesla",
    "truck": "no"
  }
},
{
  "type": "node",
  "id": 10082902414,
  "lat": 50.2408312,
  "lon": 4.2449762,
  "tags": {
    "access": "customers",
    "amenity": "charging_station",
    "authentication:none": "no",
    "bus": "no",
    "capacity": "2",
    "fee": "yes",
    "hgv": "no",
    "name": "Lidl Beaumont",
    "operator": "Lidl",
    "operator:wikidata": "Q151954",
    "operator:wikipedia": "en:Lidl",
    "parking:fee": "no",
    "socket:chademo": "1",
    "socket:chademo:output": "50 kW",
    "socket:type2": "1",
    "socket:type2:output": "22 kW",
    "socket:type2_combo": "1",
    "socket:type2_combo:output": "50 kW"
  }
},
{
  "type": "node",
  "id": 10095342977,
  "lat": 50.7597684,
  "lon": 4.2512020,
  "tags": {
    "access": "yes",
    "amenity": "charging_station",
    "bicycle": "no",
    "brand:wikidata": "Q75560554",
    "capacity": "2",
    "email": "lester@groupduyck.be",
    "fee": "yes",
    "maxstay": "unlimited",
    "motorcar": "yes",
    "network": "Allego",
    "opening_hours": "24/7",
    "panoramax": "22372ae5-d1ef-4810-8a74-89c88d875c0f",
    "panoramax:0": "58592049-7074-4e03-b9f9-b8d28deab40d",
    "panoramax:1": "d635ea9a-e49e-43c7-bd04-5af7cb81408f",
    "panoramax:2": "75efe1e3-e623-4181-8787-f9c2a32965a6",
    "parking:fee": "no",
    "payment:app": "no",
    "payment:cards": "no",
    "payment:cash": "no",
    "payment:membership_card": "yes",
    "phone": "+32 2 381 17 31",
    "socket:chademo": "1",
    "socket:chademo:output": "50 kW",
    "socket:type2_combo": "1",
    "socket:type2_combo:output": "50 kW",
    "website": "https://www.groupduyck.be/"
  }
},
{
  "type": "node",
  "id": 10236310912,
  "lat": 50.9516687,
  "lon": 5.3532026,
  "tags": {
    "access": "yes",
    "addr:city": "Hasselt",
    "addr:country": "BE",
    "addr:housenumber": "293/16",
    "addr:postcode": "3500",
    "addr:street": "Kempische Steenweg",
    "amenity": "charging_station",
    "brand": "Tesla Supercharger",
    "brand:wikidata": "Q17089620",
    "capacity": "12",
    "fee": "yes",
    "name": "Hasselt Supercharger",
    "opening_hours": "24/7",
    "operator": "Tesla",
    "operator:wikidata": "Q478214",
    "short_name": "Tesla",
    "socket:tesla_supercharger_ccs": "12",
    "socket:tesla_supercharger_ccs:output": "250 kW",
    "source": "Tesla",
    "website": "https://www.tesla.com/findus/location/supercharger/Hasseltq222"
  }
},
{
  "type": "node",
  "id": 10278762616,
  "lat": 50.9190856,
  "lon": 3.1715700,
  "tags": {
    "access": "yes",
    "amenity": "charging_station",
    "bicycle": "no",
    "brand": "Fastned",
    "bus": "no",
    "capacity": "4",
    "fee": "yes",
    "hgv": "no",
    "motorcar": "yes",
    "name": "Fastned Roeselare-Rumbeke",
    "operator": "Fastned",
    "operator:wikidata": "Q19935749",
    "scooter": "no",
    "socket:chademo": "2",
    "socket:chademo:output": "50 kW",
    "socket:type2_combo": "4",
    "socket:type2_combo:output": "300 kW",
    "voltage": "300;50"
  }
},
{
  "type": "node",
  "id": 10567155606,
  "lat": 50.6712900,
  "lon": 5.5432535,
  "tags": {
    "access": "yes",
    "addr:city": "Liège",
    "addr:country": "BE",
    "addr:description": "Cora Rocourt, 269 Chaussée de Tongres 4000 Liège",
    "addr:housenumber": "269",
    "addr:postcode": "4000",
    "addr:street": "Chaussée de Tongres",
    "amenity": "charging_station",
    "brand": "Tesla",
    "brand:wikidata": "Q478214",
    "capacity": "16",
    "fee": "yes",
    "name": "Liège Supercharger",
    "opening_hours": "24/7",
    "operator": "Tesla",
    "operator:wikidata": "Q478214",
    "short_name": "Tesla",
    "socket:tesla_supercharger_ccs": "16",
    "socket:tesla_supercharger_ccs:output": "250",
    "source": "Tesla",
    "website": "https://www.tesla.com/fr_ca/findus/location/supercharger/liegesupercharger"
  }
},
{
  "type": "node",
  "id": 10576747065,
  "lat": 50.4523732,
  "lon": 4.4302268,
  "tags": {
    "access": "customers",
    "addr:city": "Charleroi",
    "addr:country": "BE",
    "addr:housenumber": "7",
    "addr:postcode": "6040",
    "addr:street": "Rue Hubert Bastin",
    "amenity": "charging_station",
    "brand": "Tesla Supercharger",
    "brand:wikidata": "Q17089620",
    "capacity": "12",
    "construction:amenity": "charging_station",
    "fee": "yes",
    "motorcar": "yes",
    "name": "Charleroi Supercharger",
    "opening_hours": "24/7",
    "operator": "Tesla",
    "operator:wikidata": "Q478214",
    "parking:fee": "no",
    "phone": "+31 13 799 9525",
    "short_name": "Tesla",
    "socket:tesla_supercharger_ccs": "12",
    "socket:tesla_supercharger_ccs:output": "250 kW",
    "source": "Tesla",
    "truck": "no",
    "website": "https://www.tesla.com/fr_ca/findus/location/supercharger/25788"
  }
},
{
  "type": "node",
  "id": 10612983006,
  "lat": 50.8446985,
  "lon": 4.4675603,
  "tags": {
    "access": "customers",
    "amenity": "charging_station",
    "authentication:none": "no",
    "bus": "no",
    "capacity": "2",
    "fee": "yes",
    "hgv": "no",
    "name": "Lidl Kraainem",
    "opening_hours": "Mo-Fr 08:30-20:00; Sa 08:30-19:00; PH off",
    "operator": "Lidl",
    "operator:wikidata": "Q151954",
    "operator:wikipedia": "en:Lidl",
    "parking:fee": "no",
    "socket:chademo": "1",
    "socket:chademo:output": "50 kW",
    "socket:type2": "1",
    "socket:type2:output": "22 kW",
    "socket:type2_combo": "1",
    "socket:type2_combo:output": "50 kW"
  }
},
{
  "type": "node",
  "id": 10671604226,
  "lat": 51.1025771,
  "lon": 3.4560632,
  "tags": {
    "access": "yes",
    "amenity": "charging_station",
    "bicycle": "no",
    "capacity": "2",
    "charge": "DC: 0.63 eur/kwh | AC: 0.52 eur/kwh",
    "email": "wouter@autohandelwouter.be",
    "fee": "yes",
    "motorcar": "yes",
    "no:network": "yes",
    "opening_hours": "24/7",
    "operator": "Autohandel Wouter bvba",
    "panoramax": "c0beba45-2b61-4752-af85-a5869ecb2fe5",
    "panoramax:0": "0d7bf701-2bb7-4935-8d25-c820c1fb075d",
    "panoramax:1": "5181555b-a030-4b80-95ab-79d4e2be8e77",
    "parking:fee": "no",
    "payment:app": "yes",
    "payment:cards": "yes",
    "payment:cash": "no",
    "payment:membership_card": "yes",
    "phone": "+32 472 96 06 38",
    "socket:type2_combo": "2",
    "socket:type2_combo:output": "300kW"
  }
},
{
  "type": "node",
  "id": 10700603535,
  "lat": 51.1264874,
  "lon": 4.4330596,
  "tags": {
    "access": "yes",
    "amenity": "charging_station",
    "authentication:app": "yes",
    "authentication:membership_card": "yes",
    "capacity": "8",
    "check_date": "2024-05-10",
    "fee": "yes",
    "motorcar": "yes",
    "name": "Fastned Carpool Kontich",
    "network": "Fastned",
    "opening_hours": "24/7",
    "operator": "Fastned",
    "operator:wikidata": "Q19935749",
    "ref": "50465",
    "socket:chademo": "2",
    "socket:chademo:output": "50 kW",
    "socket:type2_combo": "8",
    "socket:type2_combo:output": "300 kW",
    "source": "https://fastnedcharging.com/nl/locaties",
    "start_date": "2023-02-10",
    "website": "https://fastnedcharging.com"
  }
},
{
  "type": "node",
  "id": 10779140774,
  "lat": 51.0682714,
  "lon": 5.2238750,
  "tags": {
    "amenity": "charging_station",
    "capacity": "4",
    "fee": "yes",
    "operator": "Allego",
    "operator:wikidata": "Q75560554",
    "socket:chademo": "1",
    "socket:chademo:output": "50 kW",
    "socket:type2": "2",
    "socket:type2:output": "22 kW",
    "socket:type2_cable": "1",
    "socket:type2_cable:output": "43kW",
    "socket:type2_combo": "1",
    "socket:type2_combo:output": "50 kW",
    "website": "https://www.allego.eu/nl/charging-station/koolmijnlaan-193-beringen/"
  }
},
{
  "type": "node",
  "id": 10902090199,
  "lat": 50.8698819,
  "lon": 4.5020029,
  "tags": {
    "access": "customers",
    "addr:city": "Zaventem",
    "addr:country": "BE",
    "addr:housenumber": "29",
    "addr:postcode": "1930",
    "addr:street": "Weiveldlaan",
    "amenity": "charging_station",
    "brand": "Tesla",
    "brand:wikidata": "Q478214",
    "capacity": "16",
    "fee": "yes",
    "motorcar": "yes",
    "name": "Zaventem Supercharger",
    "opening_hours": "24/7",
    "operator": "Tesla",
    "operator:wikidata": "Q478214",
    "short_name": "Tesla",
    "socket:tesla_supercharger:output": "250 kW",
    "socket:tesla_supercharger_ccs": "16",
    "socket:tesla_supercharger_ccs:output": "250 kW",
    "source": "Tesla",
    "truck": "no",
    "website": "https://www.tesla.com/findus/location/supercharger/zaventem"
  }
},
{
  "type": "node",
  "id": 11002286062,
  "lat": 50.8808733,
  "lon": 4.4505662,
  "tags": {
    "amenity": "charging_station",
    "bicycle": "no",
    "capacity": "2",
    "motorcar": "yes",
    "operator": "Allego",
    "operator:wikidata": "Q75560554",
    "socket:chademo": "1",
    "socket:chademo:output": "50 kW",
    "socket:type2_combo": "2",
    "socket:type2_combo:output": "150 kW"
  }
},
{
  "type": "node",
  "id": 11030672572,
  "lat": 50.7268696,
  "lon": 4.2591277,
  "tags": {
    "access": "yes",
    "amenity": "charging_station",
    "bicycle": "no",
    "capacity": "8",
    "fee": "yes",
    "motorcar": "yes",
    "network": "Fastned",
    "opening_hours": "24/7",
    "panoramax": "bb4b9a5e-4cb4-4cc5-909c-0d5b4970bfac",
    "panoramax:0": "74dcc521-bab6-4ebe-962b-1f0c2e4f305c",
    "panoramax:1": "65910153-4e64-4673-bcab-820621e38e76",
    "panoramax:2": "a7a2fa74-65c2-4462-a86f-d4469391f2c2",
    "parking:fee": "no",
    "payment:app": "yes",
    "payment:cards": "no",
    "payment:cash": "no",
    "payment:membership_card": "yes",
    "payment:qr_code": "yes",
    "socket:chademo": "2",
    "socket:chademo:output": "50 kW",
    "socket:type2_combo": "8",
    "socket:type2_combo:output": "300kW"
  }
},
{
  "type": "node",
  "id": 11061609791,
  "lat": 50.6075508,
  "lon": 4.1328680,
  "tags": {
    "amenity": "charging_station",
    "capacity": "3",
    "motorcar": "yes",
    "name": "Power Dot",
    "socket:chademo": "1",
    "socket:chademo:output": "50 kW",
    "socket:type2": "1",
    "socket:type2:output": "22 kW",
    "socket:type2_combo": "1",
    "socket:type2_combo:output": "80 kW",
    "voltage": "400"
  }
},
{
  "type": "node",
  "id": 11191278975,
  "lat": 50.9197657,
  "lon": 3.1720482,
  "tags": {
    "access": "yes",
    "amenity": "charging_station",
    "bicycle": "no",
    "capacity": "12",
    "fee": "yes",
    "motorcar": "yes",
    "opening_hours": "24/7",
    "socket:type2_combo": "12",
    "socket:type2_combo:output": "300kW"
  }
},
{
  "type": "node",
  "id": 11258487842,
  "lat": 50.9281236,
  "lon": 3.9581954,
  "tags": {
    "access": "yes",
    "amenity": "charging_station",
    "bicycle": "no",
    "brand": "Fastned",
    "capacity": "8",
    "fee": "yes",
    "motorcar": "yes",
    "name": "Fastned Erpe Mere",
    "network": "Fastned",
    "opening_hours": "24/7",
    "operator": "Fastned",
    "operator:wikidata": "Q19935749",
    "parking:fee": "no",
    "payment:app": "yes",
    "payment:cards": "no",
    "payment:cash": "no",
    "payment:membership_card": "yes",
    "payment:qr_code": "yes",
    "socket:chademo": "2",
    "socket:chademo:output": "50 kW",
    "socket:type2_combo": "8",
    "socket:type2_combo:output": "300kW"
  }
},
{
  "type": "node",
  "id": 11438898385,
  "lat": 50.6850578,
  "lon": 4.3764927,
  "tags": {
    "access": "yes",
    "amenity": "charging_station",
    "authentication:membership_card": "yes",
    "fee": "yes",
    "motorcar": "yes",
    "name": "TotalEnergies",
    "opening_hours": "24/7",
    "operator": "TotalEnergies",
    "operator:wikidata": "Q154037",
    "socket:chademo": "1",
    "socket:chademo:output": "100 kW",
    "socket:type2": "2",
    "socket:type2:output": "22 kW",
    "socket:type2_combo": "2",
    "socket:type2_combo:output": "160 kW"
  }
},
{
  "type": "node",
  "id": 11459161919,
  "lat": 51.1613780,
  "lon": 4.3852556,
  "tags": {
    "amenity": "charging_station",
    "brand": "Powerstop",
    "capacity": "2",
    "charging_station:output": "175 kW",
    "operator": "Volvo Cars"
  }
},
{
  "type": "node",
  "id": 11626440689,
  "lat": 51.0542355,
  "lon": 3.6981549,
  "tags": {
    "access": "yes",
    "amenity": "charging_station",
    "bicycle": "no",
    "brand:wikidata": "Q75560554",
    "capacity": "2",
    "fee": "yes",
    "motorcar": "yes",
    "network": "Allego",
    "opening_hours": "24/7",
    "operator": "Allego",
    "operator:wikidata": "Q75560554",
    "parking:fee": "no",
    "payment:app": "yes",
    "payment:cards": "no",
    "payment:cash": "no",
    "payment:membership_card": "yes",
    "payment:qr_code": "no",
    "socket:type2_combo": "2",
    "socket:type2_combo:output": "300kW"
  }
},
{
  "type": "node",
  "id": 11626452435,
  "lat": 51.0540887,
  "lon": 3.6985053,
  "tags": {
    "access": "yes",
    "amenity": "charging_station",
    "bicycle": "no",
    "brand:wikidata": "Q75560554",
    "capacity": "4",
    "fee": "yes",
    "maxstay": "30 minutes",
    "motorcar": "yes",
    "network": "Allego",
    "opening_hours": "24/7",
    "operator": "Allego",
    "operator:wikidata": "Q75560554",
    "parking:fee": "no",
    "payment:app": "yes",
    "payment:cards": "no",
    "payment:cash": "no",
    "payment:membership_card": "yes",
    "payment:qr_code": "no",
    "socket:chademo": "1",
    "socket:chademo:output": "50 kW",
    "socket:type2_combo": "4",
    "socket:type2_combo:output": "150kW"
  }
},
{
  "type": "node",
  "id": 11626452563,
  "lat": 51.0542050,
  "lon": 3.6982022,
  "tags": {
    "access": "yes",
    "amenity": "charging_station",
    "bicycle": "no",
    "brand:wikidata": "Q75560554",
    "capacity": "2",
    "fee": "yes",
    "motorcar": "yes",
    "network": "Allego",
    "opening_hours": "24/7",
    "operator": "Allego",
    "operator:wikidata": "Q75560554",
    "parking:fee": "no",
    "payment:app": "yes",
    "payment:cards": "no",
    "payment:cash": "no",
    "payment:membership_card": "yes",
    "payment:qr_code": "no",
    "socket:type2_combo": "2",
    "socket:type2_combo:output": "150kW"
  }
},
{
  "type": "node",
  "id": 11683815459,
  "lat": 50.9011945,
  "lon": 3.4055293,
  "tags": {
    "access": "yes",
    "amenity": "charging_station",
    "brand": "Gabriels",
    "charge": "5.40 EUR",
    "covered": "no",
    "fee": "yes",
    "operator": "Hypercharger",
    "socket:type2_combo": "2",
    "socket:type2_combo:current": "1000",
    "socket:type2_combo:output": "300",
    "socket:type2_combo:voltage": "500",
    "source": "survey"
  }
},
{
  "type": "node",
  "id": 11683815460,
  "lat": 50.9011369,
  "lon": 3.4055929,
  "tags": {
    "access": "yes",
    "amenity": "charging_station",
    "brand": "Gabriels",
    "charge": "5.40 EUR",
    "fee": "yes",
    "operator": "Hypercharger",
    "payment:app": "yes",
    "payment:membership_card": "yes",
    "socket:type2_combo": "2",
    "socket:type2_combo:output": "300",
    "socket:type2_combo:voltage": "1000"
  }
},
{
  "type": "node",
  "id": 11683815461,
  "lat": 50.9010834,
  "lon": 3.4056596,
  "tags": {
    "access": "yes",
    "amenity": "charging_station",
    "brand": "Gabriels",
    "charge": "5.40 EUR",
    "covered": "no",
    "fee": "yes",
    "operator": "Hypercharger",
    "socket:type2_combo": "2",
    "socket:type2_combo:current": "500",
    "socket:type2_combo:output": "300",
    "socket:type2_combo:voltage": "1000",
    "source": "survey"
  }
},
{
  "type": "node",
  "id": 11758121117,
  "lat": 50.8745263,
  "lon": 3.4414522,
  "tags": {
    "access": "yes",
    "amenity": "charging_station",
    "brand": "Hypercharger",
    "capacity": "2",
    "covered": "no",
    "fee": "yes",
    "socket:type2_combo": "2",
    "socket:type2_combo:current": "500",
    "socket:type2_combo:output": "300",
    "socket:type2_combo:voltage": "1000",
    "source": "survey"
  }
},
{
  "type": "node",
  "id": 11873800508,
  "lat": 50.7081115,
  "lon": 5.2527185,
  "tags": {
    "amenity": "charging_station",
    "capacity": "8",
    "name": "TotalEnergies",
    "socket:chademo": "2",
    "socket:chademo:output": "100 kW",
    "socket:type2": "6",
    "socket:type2:output": "22 kW",
    "socket:type2_combo": "4",
    "socket:type2_combo:output": "300 kW"
  }
},
{
  "type": "node",
  "id": 11980291708,
  "lat": 50.6554652,
  "lon": 5.7109804,
  "tags": {
    "access": "yes",
    "addr:city": "Soumagne",
    "addr:postcode": "4632",
    "addr:street": "Aire de Tignée Nord",
    "amenity": "charging_station",
    "authentication:app": "yes",
    "authentication:membership_card": "yes",
    "brand": "Ionity",
    "brand:wikidata": "Q42717773",
    "capacity": "1",
    "fee": "yes",
    "motorcar": "yes",
    "name": "Tignée",
    "opening_hours": "24/7",
    "operator": "Ionity",
    "payment:credit_cards": "no",
    "socket:type2_combo": "4",
    "socket:type2_combo:output": "350kW"
  }
},
{
  "type": "node",
  "id": 11980291709,
  "lat": 50.6554391,
  "lon": 5.7109840,
  "tags": {
    "access": "yes",
    "addr:city": "Soumagne",
    "addr:postcode": "4632",
    "addr:street": "Aire de Tignée Nord",
    "amenity": "charging_station",
    "authentication:app": "yes",
    "authentication:membership_card": "yes",
    "brand": "Ionity",
    "brand:wikidata": "Q42717773",
    "capacity": "1",
    "fee": "yes",
    "motorcar": "yes",
    "name": "Tignée",
    "opening_hours": "24/7",
    "operator": "Ionity",
    "payment:credit_cards": "no",
    "socket:type2_combo": "4",
    "socket:type2_combo:output": "350kW"
  }
},
{
  "type": "node",
  "id": 11980291710,
  "lat": 50.6554120,
  "lon": 5.7109855,
  "tags": {
    "access": "yes",
    "addr:city": "Soumagne",
    "addr:postcode": "4632",
    "addr:street": "Aire de Tignée Nord",
    "amenity": "charging_station",
    "authentication:app": "yes",
    "authentication:membership_card": "yes",
    "brand": "Ionity",
    "brand:wikidata": "Q42717773",
    "capacity": "1",
    "fee": "yes",
    "motorcar": "yes",
    "name": "Tignée",
    "opening_hours": "24/7",
    "operator": "Ionity",
    "payment:credit_cards": "no",
    "socket:type2_combo": "4",
    "socket:type2_combo:output": "350kW"
  }
},
{
  "type": "node",
  "id": 11980291711,
  "lat": 50.6553824,
  "lon": 5.7109835,
  "tags": {
    "access": "yes",
    "addr:city": "Soumagne",
    "addr:postcode": "4632",
    "addr:street": "Aire de Tignée Nord",
    "amenity": "charging_station",
    "authentication:app": "yes",
    "authentication:membership_card": "yes",
    "brand": "Ionity",
    "brand:wikidata": "Q42717773",
    "capacity": "1",
    "fee": "yes",
    "motorcar": "yes",
    "name": "Tignée",
    "opening_hours": "24/7",
    "operator": "Ionity",
    "payment:credit_cards": "no",
    "socket:type2_combo": "4",
    "socket:type2_combo:output": "350kW"
  }
},
{
  "type": "node",
  "id": 11980291712,
  "lat": 50.6553257,
  "lon": 5.7109728,
  "tags": {
    "access": "yes",
    "addr:city": "Soumagne",
    "addr:postcode": "4632",
    "addr:street": "Aire de Tignée Nord",
    "amenity": "charging_station",
    "authentication:app": "yes",
    "authentication:membership_card": "yes",
    "brand": "Ionity",
    "brand:wikidata": "Q42717773",
    "capacity": "1",
    "fee": "yes",
    "motorcar": "yes",
    "name": "Tignée",
    "opening_hours": "24/7",
    "operator": "Ionity",
    "payment:credit_cards": "no",
    "socket:type2_combo": "4",
    "socket:type2_combo:output": "350kW"
  }
},
{
  "type": "node",
  "id": 12026796787,
  "lat": 50.9695570,
  "lon": 3.1878441,
  "tags": {
    "access": "yes",
    "amenity": "charging_station",
    "bicycle": "no",
    "capacity": "18",
    "email": "info@laadpunt-ghesquiere.be",
    "fee": "yes",
    "motorcar": "yes",
    "no:network": "yes",
    "opening_hours": "24/7",
    "operator": "Ghesquière",
    "phone": "+32 471 53 73 53",
    "socket:type2": "10",
    "socket:type2:output": "22 kW",
    "socket:type2_combo": "8",
    "socket:type2_combo:output": "300kW",
    "website": "https://laadpunt-ghesquiere.be"
  }
},
{
  "type": "node",
  "id": 12027991827,
  "lat": 50.6863097,
  "lon": 5.6433009,
  "tags": {
    "amenity": "charging_station",
    "brand": "Electra",
    "brand:wikidata": "Q128592938",
    "capacity": "8",
    "charging_station:output": "300 kW",
    "network": "Electra",
    "network:wikidata": "Q128592938",
    "opening_hours": "24/7",
    "operator": "Electra",
    "operator:email": "help@go-electra.com",
    "operator:phone": "+33186659999",
    "owner": "Eletra",
    "owner:wikidata": "Q128597425",
    "website": "https://stations.go-electra.com/fr/herstal-delhaize/"
  }
},
{
  "type": "node",
  "id": 12028809174,
  "lat": 50.6287921,
  "lon": 5.6237705,
  "tags": {
    "amenity": "charging_station",
    "brand": "Electra",
    "capacity": "6",
    "charging_station:output": "300 kW"
  }
},
{
  "type": "node",
  "id": 12079990920,
  "lat": 50.6525055,
  "lon": 6.0031614,
  "tags": {
    "amenity": "charging_station",
    "brand": "CenEnergy",
    "capacity": "12",
    "charging_station:output": "350 kw",
    "fee": "yes",
    "operator": "CenEnergy"
  }
},
{
  "type": "node",
  "id": 12094047233,
  "lat": 50.8978678,
  "lon": 3.3995661,
  "tags": {
    "access": "yes",
    "amenity": "charging_station",
    "capacity": "2",
    "covered": "no",
    "fee": "yes",
    "maxstay": "30 minutes",
    "name": "Sint-Eloois-Vijve Gentseweg 520TN01",
    "operator": "Allego",
    "operator:wikidata": "Q75560554",
    "payment:american_express": "yes",
    "payment:bancontact": "yes",
    "payment:maestro": "yes",
    "payment:mastercard": "yes",
    "payment:visa": "yes",
    "ref": "BEALLEGO000228",
    "socket:type2_combo": "2",
    "socket:type2_combo:output": "300kW",
    "source": "survey"
  }
},
{
  "type": "node",
  "id": 12094047234,
  "lat": 50.8978285,
  "lon": 3.3995939,
  "tags": {
    "access": "yes",
    "amenity": "charging_station",
    "capacity": "2",
    "covered": "no",
    "fee": "yes",
    "maxstay": "30 minutes",
    "name": "Sint-Eloois-Vijve Gentseweg 520TN01",
    "operator": "Allego",
    "operator:wikidata": "Q75560554",
    "payment:american_express": "yes",
    "payment:bancontact": "yes",
    "payment:maestro": "yes",
    "payment:mastercard": "yes",
    "payment:visa": "yes",
    "ref": "BEALLEGO000359",
    "socket:type2_combo": "2",
    "socket:type2_combo:output": "150kW"
  }
},
{
  "type": "node",
  "id": 12099439739,
  "lat": 51.1794859,
  "lon": 3.1128944,
  "tags": {
    "amenity": "charging_station",
    "brand": "Data 24",
    "capacity": "1",
    "opening_hours": "24/7",
    "socket:type2_combo": "1",
    "socket:type2_combo:output": "60"
  }
},
{
  "type": "node",
  "id": 12105705162,
  "lat": 51.1243249,
  "lon": 3.0320074,
  "tags": {
    "access": "yes",
    "amenity": "charging_station",
    "bicycle": "no",
    "brand": "Optiload",
    "bus": "no",
    "capacity": "2",
    "charge": "0,30 € startprijs en verder 0,76€/kWh",
    "email": "service@optiloadenergy.eu",
    "fee": "yes",
    "hgv": "no",
    "motorcar": "yes",
    "name": "ALDI EERNEGEM",
    "network": "Optiload Energy",
    "operator": "Aldi",
    "operator:wikidata": "Q41171373",
    "panoramax": "c5a0c8d2-7614-4c6f-8ffd-6c9d88572fbe",
    "panoramax:0": "5ed0c41a-75d6-40e7-9faf-79c49b79b26f",
    "panoramax:1": "b645ab85-254c-45a0-8e29-3a6148fa642e",
    "parking:fee": "no",
    "payment:app": "no",
    "payment:cards": "yes",
    "payment:cash": "no",
    "payment:membership_card": "no",
    "payment:qr_code": "yes",
    "phone": "+32 3 369 12 59",
    "ref": "BE*OPL*E673*1 /BE*OPL*E673*2",
    "scooter": "no",
    "socket:type2_combo": "1",
    "socket:type2_combo:current": "185A",
    "socket:type2_combo:output": "120kW",
    "socket:type2_combo:voltage": "400V",
    "website": "https://www.optiloadenergy.eu"
  }
},
{
  "type": "node",
  "id": 12149354785,
  "lat": 51.0893763,
  "lon": 3.8113687,
  "tags": {
    "amenity": "charging_station",
    "bicycle": "no",
    "brand:wikidata": "Q75560554",
    "capacity": "2",
    "fee": "yes",
    "maxstay": "30 minutes",
    "motorcar": "yes",
    "network": "Allego",
    "opening_hours": "24/7",
    "parking:fee": "no",
    "payment:app": "no",
    "payment:cards": "no",
    "payment:cash": "no",
    "payment:membership_card": "yes",
    "payment:qr_code": "no",
    "ref": "BEALLEGO000330",
    "socket:type2_combo": "1",
    "socket:type2_combo:output": "150kW"
  }
},
{
  "type": "node",
  "id": 12151745290,
  "lat": 50.6834790,
  "lon": 4.3662467,
  "tags": {
    "access": "yes",
    "amenity": "charging_station",
    "authentication:app": "yes",
    "authentication:membership_card": "yes",
    "brand": "TotalEnergies",
    "capacity": "4",
    "fee": "yes",
    "operator": "TotalEnergies",
    "operator:wikidata": "Q154037",
    "socket:chademo": "1",
    "socket:chademo:output": "120 kW",
    "socket:type2": "2",
    "socket:type2:output": "22 kW",
    "socket:type2_combo": "2",
    "socket:type2_combo:output": "120 kW"
  }
},
{
  "type": "node",
  "id": 12196419473,
  "lat": 51.0749583,
  "lon": 3.4484255,
  "tags": {
    "access": "yes",
    "amenity": "charging_station",
    "bicycle": "no",
    "capacity": "14",
    "fee": "yes",
    "motorcar": "yes",
    "opening_hours": "24/7",
    "operator": "Q8",
    "panoramax": "10083141-aca1-4e91-bf81-286fbb379a5e",
    "panoramax:0": "2bcf87eb-b6f9-43e7-a37d-3eb9bc814ef9",
    "panoramax:1": "d6efa12c-b5dc-4687-850a-9c8620d67400",
    "panoramax:2": "2aeae691-447a-4bcb-bfbd-b6024e6fac64",
    "parking:fee": "no",
    "socket:chademo": "1",
    "socket:chademo:output": "50 kW",
    "socket:type2": "2",
    "socket:type2_combo": "10"
  }
},
{
  "type": "node",
  "id": 12497844163,
  "lat": 50.4897939,
  "lon": 4.8938897,
  "tags": {
    "access": "yes",
    "amenity": "charging_station",
    "brand": "Electra",
    "brand:wikidata": "Q128592938",
    "capacity": "2",
    "charging_station:output": "300 kW",
    "contact:website": "https://stations.go-electra.com/namur-quick-champion/",
    "fee": "yes",
    "motorcar": "designated",
    "name": "Namur - Quick Champion",
    "opening_hours": "24/7",
    "operator": "Electra",
    "operator:wikidata": "Q128592938",
    "payment:cards": "yes",
    "payment:maestro": "yes",
    "socket:type2_cable": "yes",
    "socket:type2_combo": "yes",
    "socket:type2_combo:output": "22 kW"
  }
},
{
  "type": "node",
  "id": 12590723999,
  "lat": 50.5674075,
  "lon": 4.6908445,
  "tags": {
    "access": "yes",
    "amenity": "charging_station",
    "capacity": "4",
    "name": "Borne de recharge Powerdot",
    "operator": "Powerdot",
    "socket:chademo": "1",
    "socket:chademo:output": "50",
    "socket:type2": "1",
    "socket:type2:output": "22",
    "socket:type2_combo": "2",
    "socket:type2_combo:output": "100"
  }
},
{
  "type": "node",
  "id": 12761832269,
  "lat": 50.8898687,
  "lon": 4.5432090,
  "tags": {
    "access": "yes",
    "amenity": "charging_station",
    "brand": "Mega Charge",
    "capacity": "2",
    "charging_station:output": "150 kW"
  }
},
{
  "type": "node",
  "id": 12761846366,
  "lat": 50.0835903,
  "lon": 4.5241476,
  "tags": {
    "amenity": "charging_station",
    "brand": "Tesla Supercharger",
    "brand:wikidata": "Q17089620",
    "capacity": "16",
    "fee": "yes",
    "name": "Couvin Supercharger",
    "opening_hours": "24/7",
    "operator": "Tesla",
    "operator:wikidata": "Q478214",
    "short_name": "Tesla",
    "socket:tesla_supercharger_ccs": "16",
    "socket:tesla_supercharger_ccs:output": "250 kW",
    "website": "https://www.tesla.com/findus?location=33088"
  }
},
{
  "type": "node",
  "id": 12784778214,
  "lat": 51.2657919,
  "lon": 4.2859374,
  "tags": {
    "access": "customers",
    "amenity": "charging_station",
    "brand": "Milence",
    "capacity": "22",
    "contact:phone": "+32 25 85 99 83",
    "fee": "yes",
    "name": "Milence charging hub Antwerp Ketenis",
    "note": "10x CCS type 2 @ 400kW\n2x MSC @ 1400kW",
    "operator": "Milence Service Holding bv",
    "socket:type2_combo": "10",
    "socket:type2_combo:output": "400",
    "website": "https://milence.com/location/antwerp/"
  }
},
{
  "type": "node",
  "id": 12814194893,
  "lat": 51.1645961,
  "lon": 5.0314231,
  "tags": {
    "amenity": "charging_station",
    "capacity": "2",
    "fee": "yes",
    "hgv": "yes",
    "motorcar": "no",
    "motorcycle": "no",
    "operator": "Paccar",
    "panoramax": "9691159e-7ed4-4db9-be0d-5e893b486cf1"
  }
},
{
  "type": "node",
  "id": 12856117700,
  "lat": 50.8953181,
  "lon": 5.4008880,
  "tags": {
    "amenity": "charging_station",
    "authentication:app": "yes",
    "authentication:membership_card": "yes",
    "capacity": "2",
    "fee": "yes",
    "motorcar": "yes",
    "name": "Fastned Diepenbeek Zuid",
    "opening_hours": "24/7",
    "operator": "Fastned",
    "operator:wikidata": "Q19935749",
    "ref": "50642",
    "socket:chademo": "2",
    "socket:chademo:output": "50 kW",
    "socket:type2_combo": "4",
    "socket:type2_combo:output": "300 kW",
    "source": "https://fastnedcharging.com/nl/locaties",
    "source:date": "2022-06-07",
    "website": "https://fastnedcharging.com"
  }
},
{
  "type": "node",
  "id": 12856162897,
  "lat": 50.8957977,
  "lon": 5.4039793,
  "tags": {
    "amenity": "charging_station",
    "authentication:app": "yes",
    "authentication:membership_card": "yes",
    "capacity": "2",
    "fee": "yes",
    "motorcar": "yes",
    "name": "Fastned Diepenbeek Noord",
    "opening_hours": "24/7",
    "operator": "Fastned",
    "operator:wikidata": "Q19935749",
    "ref": "50641",
    "socket:chademo": "2",
    "socket:chademo:output": "50 kW",
    "socket:type2_combo": "4",
    "socket:type2_combo:output": "300 kW",
    "source": "https://fastnedcharging.com/nl/locaties",
    "source:date": "2022-06-07",
    "website": "https://fastnedcharging.com"
  }
},
{
  "type": "way",
  "id": 975718930,
  "nodes": [
    9029201834,
    9029201835,
    11423723271,
    11423723270,
    9029201836,
    9029201838,
    9029201834
  ],
  "tags": {
    "amenity": "charging_station",
    "authentication:app": "yes",
    "authentication:membership_card": "yes",
    "brand": "Ionity",
    "brand:wikidata": "Q42717773",
    "capacity": "6",
    "fee": "yes",
    "motorcar": "yes",
    "name": "Wellin",
    "opening_hours": "24/7",
    "operator": "Ionity",
    "operator:wikidata": "Q42717773",
    "operator:wikipedia": "en:IONITY",
    "payment:credit_cards": "no",
    "socket:type2_combo": "6",
    "socket:type2_combo:output": "475kW"
  }
},
{
  "type": "way",
  "id": 989053666,
  "nodes": [
    9141528987,
    9141528986,
    9141528985,
    9141528984,
    9141528987
  ],
  "tags": {
    "amenity": "charging_station",
    "charging_station:output": "50 kW",
    "fixme": "is voor boten. Hoe te benoemen?",
    "man_made": "street_cabinet",
    "socket:powerlock": "1",
    "socket:powerlock:current": "125",
    "socket:powerlock:output": "50 kW",
    "socket:powerlock:voltage": "400",
    "street_cabinet": "power",
    "utility": "power"
  }
},
{
  "type": "way",
  "id": 989054115,
  "nodes": [
    9141526552,
    9141526551,
    9141526550,
    9141526549,
    9141526552
  ],
  "tags": {
    "amenity": "charging_station",
    "charging_station:output": "50 kW",
    "fixme": "is voor boten. Hoe te benoemen?",
    "man_made": "street_cabinet",
    "socket:powerlock": "1",
    "socket:powerlock:current": "125",
    "socket:powerlock:output": "50 kW",
    "socket:powerlock:voltage": "400",
    "street_cabinet": "power",
    "utility": "power"
  }
},
{
  "type": "way",
  "id": 991790223,
  "nodes": [
    6425495016,
    9163486842,
    9163486839,
    3335137692,
    9163486844,
    9163486845,
    6425495016
  ],
  "tags": {
    "access": "yes",
    "addr:city": "Brugge",
    "addr:country": "BE",
    "addr:housenumber": "1",
    "addr:postcode": "8200",
    "addr:street": "Leikendreef",
    "amenity": "charging_station",
    "brand": "Tesla",
    "brand:wikidata": "Q478214",
    "capacity": "14",
    "capacity:charging": "14",
    "covered": "no",
    "fee": "yes",
    "motorcar": "yes",
    "name": "Brugge Supercharger",
    "network": "Tesla",
    "opening_hours": "24/7",
    "operator": "Tesla",
    "panoramax": "a1213299-924e-4a5e-9841-86b30492c0d4",
    "panoramax:0": "18f8702b-a4cf-41ff-a096-f1b6db9dce62",
    "payment:app": "yes",
    "short_name": "Tesla",
    "socket:tesla_supercharger": "6",
    "socket:tesla_supercharger:output": "150 kW",
    "socket:tesla_supercharger_ccs": "8",
    "socket:tesla_supercharger_ccs:output": "250 kW",
    "source": "survey",
    "website": "https://www.tesla.com/findus/location/supercharger/bruggesupercharger"
  }
},
{
  "type": "way",
  "id": 1095186589,
  "nodes": [
    9535748395,
    10029848752,
    10029848753,
    10029848754,
    9535748395
  ],
  "tags": {
    "access": "customers",
    "amenity": "charging_station",
    "authentication:none": "yes",
    "capacity": "2",
    "fee": "no",
    "name": "Lidl Boncelles",
    "operator": "Lidl",
    "operator:wikidata": "Q151954",
    "socket:chademo": "1",
    "socket:chademo:output": "50 kW",
    "socket:type2": "1",
    "socket:type2:output": "22 kW",
    "socket:type2_combo": "1",
    "socket:type2_combo:output": "50 kW"
  }
},
{
  "type": "way",
  "id": 1346428092,
  "nodes": [
    12453505910,
    12453505909,
    12453505908,
    12453505907,
    12453505910
  ],
  "tags": {
    "access": "yes",
    "amenity": "charging_station",
    "bicycle": "no",
    "bus": "no",
    "capacity": "10",
    "fee": "yes",
    "hgv": "no",
    "motorcar": "yes",
    "network": "TotalEnergies",
    "opening_hours": "24/7",
    "operator": "TotalEnergies",
    "panoramax": "46787f57-ddda-4a09-b9da-8b5e39cdeb8b",
    "parking:fee": "no",
    "payment:app": "yes",
    "payment:cards": "yes",
    "payment:cash": "no",
    "payment:membership_card": "yes",
    "payment:qr_code": "yes",
    "scooter": "no",
    "socket:chademo": "3",
    "socket:chademo:current": "200",
    "socket:chademo:output": "100 kW",
    "socket:chademo:voltage": "500",
    "socket:type2_combo": "7",
    "socket:type2_combo:current": "400",
    "socket:type2_combo:output": "150 kW",
    "socket:type2_combo:voltage": "920"
  }
},
{
  "type": "way",
  "id": 1346451925,
  "nodes": [
    696751454,
    1298328020,
    1016322394,
    12453758708,
    696751454
  ],
  "tags": {
    "access": "yes",
    "amenity": "charging_station",
    "bicycle": "yes",
    "bus": "yes",
    "capacity": "22",
    "fee": "yes",
    "hgv": "yes",
    "motorcar": "yes",
    "name": "Laadplein Voeders Decadt",
    "network": "Powerland",
    "opening_hours": "24/7",
    "panoramax": "23f8e941-db1a-4945-a67a-7eb9cf0ef4e6",
    "parking:fee": "no",
    "payment:app": "yes",
    "payment:cards": "yes",
    "payment:cash": "no",
    "payment:membership_card": "yes",
    "payment:qr_code": "no",
    "scooter": "yes",
    "socket:type2": "14",
    "socket:type2_combo": "6",
    "socket:type2_combo:current": "500A",
    "socket:type2_combo:output": "300kW",
    "socket:type2_combo:voltage": "1000V",
    "socket:typee": "2",
    "website": "https://www.powerland.be/nl/realisaties/detail/laadplein-voeders-decadt"
  }
},
{
  "type": "way",
  "id": 1374192285,
  "nodes": [
    12723644156,
    12723644155,
    12723644154,
    12723644153,
    12723644156
  ],
  "tags": {
    "access": "yes",
    "amenity": "charging_station",
    "brand": "Fastned",
    "brand:wikidata": "Q19935749",
    "capacity": "6",
    "charging_station:output": "1200 kW",
    "fee": "yes",
    "motorcar": "designated",
    "network": "Fastned",
    "network:wikidata": "Q19935749",
    "opening_hours": "24/7",
    "operator": "Fastned",
    "operator:wikidata": "Q19935749",
    "panoramax": "77f1a046-b8ae-4af9-b40e-8fbaedce03ce",
    "parking:fee": "no",
    "socket:type2_combo": "6"
  }
},
{
  "type": "way",
  "id": 1378748620,
  "nodes": [
    4005947484,
    4005947483,
    12766885006,
    12766885007,
    4005947484
  ],
  "tags": {
    "access": "yes",
    "amenity": "charging_station",
    "bicycle": "no",
    "brand": "DATS 24",
    "capacity": "10",
    "fee": "yes",
    "motorcar": "yes",
    "network": "DATS24",
    "opening_hours": "Fr 08:30-21:00; Mo-Th 08:30-20:00; PH off; Sa 08:30-20:00",
    "operator": "DATS 24",
    "operator:wikidata": "Q15725576",
    "panoramax": "66d8c698-b569-46b7-ad50-37f84d2a36f6",
    "panoramax:0": "16c29566-f665-4146-bc89-62e3094687b7",
    "payment:app": "yes",
    "payment:cards": "yes",
    "payment:cash": "no",
    "payment:membership_card": "yes",
    "payment:qr_code": "no",
    "socket:type2": "4",
    "socket:type2:current": "32 A",
    "socket:type2:output": "22 kW",
    "socket:type2_combo": "6",
    "socket:type2_combo:output": "150kW"
  }
},
{
  "type": "node",
  "id": 696751454,
  "lat": 50.9419656,
  "lon": 3.0565566
},
{
  "type": "node",
  "id": 1016322394,
  "lat": 50.9415406,
  "lon": 3.0569379
},
{
  "type": "node",
  "id": 1298328020,
  "lat": 50.9415244,
  "lon": 3.0565218
},
{
  "type": "node",
  "id": 12453758708,
  "lat": 50.9419761,
  "lon": 3.0568917
},
{
  "type": "node",
  "id": 4005947483,
  "lat": 50.9973941,
  "lon": 3.3173076
},
{
  "type": "node",
  "id": 4005947484,
  "lat": 50.9974081,
  "lon": 3.3173623
},
{
  "type": "node",
  "id": 12766885006,
  "lat": 50.9972260,
  "lon": 3.3174168
},
{
  "type": "node",
  "id": 12766885007,
  "lat": 50.9972401,
  "lon": 3.3174714
},
{
  "type": "node",
  "id": 3335137692,
  "lat": 51.1698302,
  "lon": 3.1965654
},
{
  "type": "node",
  "id": 6425495016,
  "lat": 51.1698869,
  "lon": 3.1966480
},
{
  "type": "node",
  "id": 9163486839,
  "lat": 51.1700947,
  "lon": 3.1965040
},
{
  "type": "node",
  "id": 9163486842,
  "lat": 51.1701035,
  "lon": 3.1965951
},
{
  "type": "node",
  "id": 9163486844,
  "lat": 51.1698597,
  "lon": 3.1968704
},
{
  "type": "node",
  "id": 9163486845,
  "lat": 51.1699072,
  "lon": 3.1968589
},
{
  "type": "node",
  "id": 12723644153,
  "lat": 50.9063721,
  "lon": 4.8698795
},
{
  "type": "node",
  "id": 12723644154,
  "lat": 50.9063982,
  "lon": 4.8699416
},
{
  "type": "node",
  "id": 12723644155,
  "lat": 50.9062682,
  "lon": 4.8700793
},
{
  "type": "node",
  "id": 12723644156,
  "lat": 50.9062420,
  "lon": 4.8700172
},
{
  "type": "node",
  "id": 12453505907,
  "lat": 51.1920515,
  "lon": 4.4197979
},
{
  "type": "node",
  "id": 12453505908,
  "lat": 51.1921099,
  "lon": 4.4202644
},
{
  "type": "node",
  "id": 12453505909,
  "lat": 51.1921607,
  "lon": 4.4202482
},
{
  "type": "node",
  "id": 12453505910,
  "lat": 51.1921023,
  "lon": 4.4197817
},
{
  "type": "node",
  "id": 9141528984,
  "lat": 51.2322455,
  "lon": 4.4059477
},
{
  "type": "node",
  "id": 9141528985,
  "lat": 51.2322453,
  "lon": 4.4059592
},
{
  "type": "node",
  "id": 9141528986,
  "lat": 51.2322692,
  "lon": 4.4059604
},
{
  "type": "node",
  "id": 9141528987,
  "lat": 51.2322694,
  "lon": 4.4059488
},
{
  "type": "node",
  "id": 9141526549,
  "lat": 51.2334697,
  "lon": 4.4059390
},
{
  "type": "node",
  "id": 9141526550,
  "lat": 51.2334695,
  "lon": 4.4059506
},
{
  "type": "node",
  "id": 9141526551,
  "lat": 51.2334934,
  "lon": 4.4059518
},
{
  "type": "node",
  "id": 9141526552,
  "lat": 51.2334936,
  "lon": 4.4059402
},
{
  "type": "node",
  "id": 9029201834,
  "lat": 50.0782325,
  "lon": 5.1317344
},
{
  "type": "node",
  "id": 9029201835,
  "lat": 50.0784861,
  "lon": 5.1318764
},
{
  "type": "node",
  "id": 9029201836,
  "lat": 50.0784222,
  "lon": 5.1320223
},
{
  "type": "node",
  "id": 9029201838,
  "lat": 50.0781954,
  "lon": 5.1318953
},
{
  "type": "node",
  "id": 11423723270,
  "lat": 50.0784405,
  "lon": 5.1319431
},
{
  "type": "node",
  "id": 11423723271,
  "lat": 50.0784672,
  "lon": 5.1319580
},
{
  "type": "node",
  "id": 9535748395,
  "lat": 50.5638804,
  "lon": 5.5486172
},
{
  "type": "node",
  "id": 10029848752,
  "lat": 50.5638356,
  "lon": 5.5486263
},
{
  "type": "node",
  "id": 10029848753,
  "lat": 50.5638265,
  "lon": 5.5485233
},
{
  "type": "node",
  "id": 10029848754,
  "lat": 50.5638702,
  "lon": 5.5485129
}

  ]
}
